OID_,id,region,zone,name,lat,long,quality,frequency,direction,type,experience,numerical_direction,numerical_frequency,numerical_experience,numerical_quality,state,sci_10km,sci_5km,sci_1km,sci_wo_climate,nm_regiao,sum_10km,hab_10km,normalized_carbon,normalized_cp,climate_added,climate_index
196,195,Sul,Rio Grande Do Sul,Hermenegildo,-33.668354,-53.262405,3,3,Right and left,Beach-break,All surfers,2,3,1,3,Rio Grande do Sul,0.2279260782,0.3073365038,0.2262599809,0.2727716575,Sul,0,0.0327169514542,0,0.046503807,0.046503807,0.0293691917
197,196,Sul,Rio Grande Do Sul,Navio,-32.290561,-52.258675,3,2,Right and left,Beach-break,All surfers,2,2,1,3,Rio Grande do Sul,0.2488905733,0.3367660574,0.3470388644,0.3020177063,Sul,0,0.0249251612458,0,0.0354285726,0.0354285726,0.0223746959
198,197,Sul,Rio Grande Do Sul,Tres Marias,-32.192611,-52.085066,5,2,Right and left,Sand-bar,Pros or kamikaze only...,2,2,0,5,Rio Grande do Sul,0.255091628,0.3576681181,0.41195123300000003,0.3073484063,Sul,0,0.031247251032,0,0.0444147779,0.0444147779,0.0280498783
199,198,Sul,Rio Grande Do Sul,Praia do Cassino,-32.178337,-52.142143,3,2,Right and left,Sand-bar,All surfers,2,2,1,3,Rio Grande do Sul,0.2224663401,0.2738684375,0.2584585072,0.2613987771,Sul,0,0.0445070762235,0,0.0632622659,0.0632622659,0.0399528928
200,199,Sul,Rio Grande Do Sul,Sao Jose do Norte,-32.008076,-52.01889,3,NA,Right and left,Beach-break,All surfers,2,1,1,3,Rio Grande do Sul,0.2042307343,0.2379503479,0.2205724562,0.2180309297,Sul,0,0.0978719719808,0,0.1391150182,0.1391150182,0.0878572294
201,200,Sul,Rio Grande Do Sul,Quintão,-30.410782,-50.292664,3.5,3,Right and left,Sand-bar,Experienced surfers,2,3,0,3.5,Rio Grande do Sul,0.1777646541,0.2513340949,0.2536722907,0.2225605675,Sul,0,0,0,0,0,0
513,512,Sul,Rio Grande Do Sul,Salinas,-30.154806,-50.192222,2,2,Right and left,Beach-break,All surfers,2,2,1,2,Rio Grande do Sul,0.1907026276,0.2448192759,0.2259125403,0.2387588536,Sul,0,0,0,0,0,0
202,201,Sul,Rio Grande Do Sul,Nova Tramandaí,-30.045257,-50.150034,3,3,Right and left,Beach-break,All surfers,2,3,1,3,Rio Grande do Sul,0.262602419,0.2811657579,0.2395449631,0.3287770772,Sul,0,0,0,0,0,0
203,202,Sul,Rio Grande Do Sul,Oasis Sul,-30.039823,-50.147266,3,3,Right and left,Beach-break,All surfers,2,3,1,3,Rio Grande do Sul,0.259467499,0.2894593445,0.2445678032,0.3248521711,Sul,0,0,0,0,0,0
204,203,Sul,Rio Grande Do Sul,Tramandai - Malvina,-30.005490000000002,-50.129156,3.5,3,Right and left,Beach-break,All surfers,2,3,1,3.5,Rio Grande do Sul,0.2727615804,0.2839092771,0.310478475,0.3414963027,Sul,0,0,0,0,0,0
205,204,Sul,Rio Grande Do Sul,Tramandai,-29.993077,-50.125508,3,3,Right and left,Beach-break,All surfers,2,3,1,3,Rio Grande do Sul,0.2575900619,0.2648185692,0.2492837507,0.3225016281,Sul,0,0,0,0,0,0
514,513,Sul,Rio Grande Do Sul,Imbé,-29.961877,-50.111065,3,3,Right and left,Beach-break,All surfers,2,3,1,3,Rio Grande do Sul,0.2445552193,0.2808143546,0.2374909051,0.3061820623,Sul,0,0,0,0,0,0
515,514,Sul,Rio Grande Do Sul,Mariluz,-29.931069,-50.09665,3,3,Right and left,Sand-bar,All surfers,2,3,1,3,Rio Grande do Sul,0.2610549229,0.2753261443,0.2438845215,0.3268396189,Sul,0,0,0,0,0,0
206,205,Sul,Rio Grande Do Sul,Rainha do Mar,-29.859478,-50.064569,3.5,5,Right and left,Beach-break,All surfers,2,5,1,3.5,Rio Grande do Sul,0.2617364195,0.2870757482,0.276751478,0.3276928497,Sul,0,0,0,0,0,0
207,206,Sul,Rio Grande Do Sul,Xangri-lá,-29.785982,-50.024636,3,3,Right and left,Beach-break,All surfers,2,3,1,3,Rio Grande do Sul,0.4366097491,0.5783649243,0.324474925,0.5466334916,Sul,0,0,0,0,0,0
208,207,Sul,Rio Grande Do Sul,Atlântida - Pier,-29.784716,-50.022554,3,3,Right and left,Sand-bar,All surfers,2,3,1,3,Rio Grande do Sul,0.4364857555,0.5782986146,0.3423086214,0.5464782522,Sul,0,0,0,0,0,0
209,208,Sul,Rio Grande Do Sul,Capao da Canoa,-29.758677,-50.010967,3,3,Right and left,Sand-bar,All surfers,2,3,1,3,Rio Grande do Sul,0.4481565682,0.5773124308,0.393801772,0.5553323462,Sul,0,0.0149613126422,0,0.0212659788,0.0212659788,0.0134303974
210,209,Sul,Rio Grande Do Sul,Capao Novo,-29.686972,-49.972559,3,3,Right and left,Beach-break,All surfers,2,3,1,3,Rio Grande do Sul,0.3054544386,0.393177215,0.4214453773,0.3654240325,Sul,0,0.0441835134975,0,0.0628023545,0.0628023545,0.0396624386
516,515,Sul,Rio Grande Do Sul,Arroio Teixeira,-29.645605,-49.945509,3,3,Right and left,Beach-break,All surfers,2,3,1,3,Rio Grande do Sul,0.3213660897,0.4032342054,0.3630448161,0.3853453499,Sul,0,0.0441835134975,0,0.0628023545,0.0628023545,0.0396624386
211,210,Sul,Rio Grande Do Sul,Curumim,-29.625605,-49.935745,3,4,Right and left,Beach-break,Experienced surfers,2,4,0,3,Rio Grande do Sul,0.2472614028,0.2551647917,0.2652408651,0.2925666068,Sul,0,0.0441835134975,0,0.0628023545,0.0628023545,0.0396624386
212,211,Sul,Rio Grande Do Sul,Itapeva,-29.372975,-49.78411,3,3,Right and left,Beach-break,All surfers,2,3,1,3,Rio Grande do Sul,0.5336836787,0.3540734612,0.3814078896,0.6393549482,Sul,0,0.0748744263206,0,0.1064263544,0.1064263544,0.0672129059
213,212,Sul,Rio Grande Do Sul,Guarita,-29.357805,-49.733997,3,2,Right and left,Beach-break,All surfers,2,2,1,3,Rio Grande do Sul,0.4462074387,0.5021973029,0.3672140716,0.4560849952,Sul,0,0.266512705472,0,0.3788206074,0.3788206074,0.2392418118
214,213,Sul,Rio Grande Do Sul,Cal,-29.349421,-49.72985,3.5,3,Right and left,Beach-break,All surfers,2,3,1,3.5,Rio Grande do Sul,0.4669613056,0.5240149089,0.3364841957,0.4815968419,Sul,0,0.26773893859,0,0.3805635726,0.3805635726,0.2403425707
215,214,Sul,Rio Grande Do Sul,Ilha dos Lobos,-29.346877,-49.704412,5,2,Left,Reef-rocky,Pros or kamikaze only...,1,2,0,5,Rio Grande do Sul,0.3695577859,0.4108275026,0.3688982856,0.3715369083,Sul,0,0.236845984137,0,0.3366523911,0.3366523911,0.2126107356
216,215,Sul,Rio Grande Do Sul,Prainha,-29.342435,-49.724497,3.5,3,Right and left,Beach-break,Experienced surfers,2,3,0,3.5,Rio Grande do Sul,0.3864849939,0.4384493041,0.2577482479,0.3871492197,Sul,0,0.251346758676,0,0.357263762,0.357263762,0.2256277194
217,216,Sul,Rio Grande Do Sul,Saraiva,-29.340396,-49.723241,3.5,3,Right and left,Beach-break,Experienced surfers,2,3,0,3.5,Rio Grande do Sul,0.3832698183,0.4344434798,0.2640793206,0.3876403304,Sul,0,0.239610723251,0,0.3405821856,0.3405821856,0.215092573
218,217,Sul,Rio Grande Do Sul,Molhes,-29.327311,-49.712008,3.5,3,Right and left,Beach-break,All surfers,2,3,1,3.5,Rio Grande do Sul,0.4401389278,0.495072807,0.4202725758,0.4827568118,Sul,0,0.177463849786,0,0.2522467484,0.2522467484,0.1593048739
219,218,Sul,Rio Grande Do Sul,Passo de Torres,-29.324159,-49.712416,3.5,2,Right and left,Rivermouth,Experienced surfers,2,2,0,3.5,Santa Catarina,0.346746381,0.4155576138,0.3135635675,0.3656323677,Sul,0,0.177976751086,0,0.2529757852,0.2529757852,0.1597652926
220,219,Sul,Santa Catarina South,Gaivota,-29.164828,-49.582157,3,2,Right and left,Beach-break,Experienced surfers,2,2,0,3,Santa Catarina,0.2113138923,0.2337816327,0.1570397041,0.26337192,Sul,0,0.00309777174515,0,0.0044031663,0.0044031663,0.0027807924
221,220,Sul,Santa Catarina South,Arroio do Silva,-28.943866,-49.385605,3.5,2,Right and left,Beach-break,Experienced surfers,2,2,0,3.5,Santa Catarina,0.2762603014,0.2912973889,0.2018635419,0.3093909312,Sul,0,0.0948075840529,0,0.1347593035,0.1347593035,0.0851064047
222,221,Sul,Santa Catarina South,Morro dos Conventos,-28.937256,-49.329643,3.5,3,Right and left,Beach-break,All surfers,2,3,1,3.5,Santa Catarina,0.3856635457,0.4340190592,0.4556766105,0.4014873758,Sul,0,0.211416907958,0,0.3005075549,0.3005075549,0.1897836878
223,222,Sul,Santa Catarina South,Rincão,-28.833847,-49.216003,3.5,4,Right and left,Beach-break,Experienced surfers,2,4,0,3.5,Santa Catarina,0.2116138663,0.2495524007,0.3305012952,0.2649396327,Sul,0,0,0,0,0,0
224,223,Sul,Santa Catarina South,Jaguaruna,-28.635157,-48.948212,3.5,3,Right and left,Beach-break,All surfers,2,3,1,3.5,Santa Catarina,0.297086094,0.3538158527,0.4044047552,0.3719504871,Sul,0,0,0,0,0,0
225,224,Sul,Santa Catarina South,Camacho,-28.615946,-48.859506,3,2,NA,Beach-break,All surfers,1,2,1,3,Santa Catarina,0.2753906466,0.2981878596,0.2985104017,0.344787882,Sul,0,0,0,0,0,0
226,225,Sul,Santa Catarina South,Cigana,-28.613535,-48.845387,3,3,Right and left,Beach-break,Experienced surfers,2,3,0,3,Santa Catarina,0.2684573943,0.330703188,0.2721393011,0.3361074806,Sul,0,0,0,0,0,0
227,226,Sul,Santa Catarina South,Cardozo,-28.607516,-48.822995,3.5,4,Right and left,Beach-break,All surfers,2,4,1,3.5,Santa Catarina,0.3782005508,0.4427115183,0.332539395,0.4683201067,Sul,0,0.0134739738546,0,0.0191518785,0.0191518785,0.0120952504
228,227,Sul,Santa Catarina South,Cemiterio,-28.604342,-48.811998,5,1,Right,Point-break,Pros or kamikaze only...,1,1,0,5,Santa Catarina,0.2925713518,0.3233988714,0.2797575043,0.352129192,Sul,0,0.0368175241772,0,0.0523323526,0.0523323526,0.0330501736
229,228,Sul,Santa Catarina South,Prainha do Farol,-28.600442,-48.816655,3,1,Right,Beach-break,All surfers,1,1,1,3,Santa Catarina,0.2927332328,0.3360628959,0.2527562207,0.3520912869,Sul,0,0.0374426652509,0,0.0532209268,0.0532209268,0.0336113472
1,0,Sul,NA,Cardoso,-28.58545,-48.79827,NA,NA,NA,NA,NA,1,1,1,1,Santa Catarina,0.22600278,0.2343296563,0.2472544794,0.2620271643,Sul,0,0.0543792820385,0,0.0772945988,0.0772945988,0.0488149258
230,229,Sul,Santa Catarina South,Ipoa,-28.536689,-48.765521,3,4,Right and left,Beach-break,All surfers,2,4,1,3,Santa Catarina,0.3959933557,0.40177662,0.4074426553,0.459768237,Sul,0,0.0935809786689,0,0.1330158092,0.1330158092,0.0840053117
231,230,Sul,Santa Catarina South,Teresa,-28.524982,-48.762453,3,3,Right and left,Beach-break,All surfers,2,3,1,3,Santa Catarina,0.3855201898,0.4318648881,0.4125919089,0.4462407095,Sul,0,0.0946597897718,0,0.1345492291,0.1345492291,0.0849737335
232,231,Sul,Santa Catarina South,Praia de Cima,-28.49735,-48.748752,3.5,2,Right and left,Beach-break,All surfers,2,2,1,3.5,Santa Catarina,0.4131729006,0.4626066425,0.4503005094,0.4643128454,Sul,0,0.137661907085,0,0.1956723495,0.1956723495,0.1235756622
233,232,Sul,Santa Catarina South,Laguna,-28.473973,-48.762646,3.5,3,Right and left,Beach-break,All surfers,2,3,1,3.5,Santa Catarina,0.4315987142,0.4732663333,0.4323275955,0.4662125815,Sul,0,0.192669960586,0,0.2738606828,0.2738606828,0.1729550205
2,1,Sul,NA,Ravena,-28.45478,-48.75134,NA,NA,NA,NA,NA,1,1,1,1,Santa Catarina,0.3868176706,0.2739184286,0.2517012065,0.4117079794,Sul,0,0.188613552669,0,0.268094913,0.268094913,0.1693136843
234,233,Sul,Santa Catarina South,Cavalinho,-28.419032,-48.744278,3.5,3,Right,Point-break,Experienced surfers,1,3,0,3.5,Santa Catarina,0.393476202,0.2493551425,0.2261260223,0.4325295609,Sul,0,0.156171166342,0,0.2219813723,0.2219813723,0.1401909628
235,234,Sul,Santa Catarina South,Itapirubá,-28.342309,-48.7078,3.5,4,Right and left,Beach-break,All surfers,2,4,1,3.5,Santa Catarina,0.4772140241,0.3702860876,0.3449111838,0.5930941582,Sul,0,0.0113701983071,0,0.0161615763,0.0161615763,0.0102067436
236,235,Sul,Santa Catarina South,Itapirubá Norte,-28.336776,-48.70471,3.5,3,Right and left,Beach-break,All surfers,2,3,1,3.5,Santa Catarina,0.4761370371,0.3662572294,0.3461960451,0.5911073512,Sul,0,0.0130291316143,0,0.0185195807,0.0185195807,0.0116959267
237,236,Sul,Santa Catarina South,Castelinho,-28.256232,-48.672695,4,4,Right and left,Beach-break,Experienced surfers,2,4,0,4,Santa Catarina,0.2921759421,0.3463838705,0.3552964124,0.3116008187,Sul,0,0.140843398094,0,0.2001945142,0.2001945142,0.1264316073
3,2,Sul,NA,Praia da Vila Imbituba,-28.25247222,-48.66185,NA,NA,NA,NA,NA,1,1,1,1,Santa Catarina,0.1644555127,0.2366636235,0.2129161709,0.1517785065,Sul,0,0.140627450147,0,0.1998875663,0.1998875663,0.1262377563
238,237,Sul,Santa Catarina South,Praia da Vila,-28.241149,-48.653877,4,4,Right and left,Sand-bar,Experienced surfers,2,4,0,4,Santa Catarina,0.2847169235,0.3597101459,0.3200865558,0.300827352,Sul,0,0.144571721464,0,0.2054939453,0.2054939453,0.1297784303
4,3,Sul,NA,Praia do Porto Imbituba,-28.220199,-48.663214,NA,NA,NA,NA,NA,1,1,1,1,Santa Catarina,0.1909988994,0.2364802651,0.1663766298,0.1709610418,Sul,0,0.177135263249,0,0.2517796962,0.2517796962,0.15900991
239,238,Sul,Santa Catarina South,Ribanceira,-28.191742,-48.661344,3,2,Right and left,Sand-bar,All surfers,2,2,1,3,Santa Catarina,0.390340315,0.3488634405,0.3360329736,0.3963547487,Sul,0,0.239968826699,0,0.3410911931,0.3410911931,0.2154140335
517,516,Sul,Santa Catarina South,Ilha do Batuta,-28.153828,-48.639898,3.5,1,Right,Reef-rocky,Pros or kamikaze only...,1,1,0,3.5,Santa Catarina,0.2690493221,0.3284962722,0.3963825585,0.2337033292,Sul,0,0.268021074304,0,0.3809645997,0.3809645997,0.2405958369
240,239,Sul,Santa Catarina South,Ibiraquera,-28.153732,-48.645895,4,4,Right and left,Point-break,Experienced surfers,2,4,0,4,Santa Catarina,0.3710040357,0.4022315055,0.4871116427,0.3613501836,Sul,0,0.268021074304,0,0.3809645997,0.3809645997,0.2405958369
241,240,Sul,Santa Catarina South,Rosa Sul,-28.135402,-48.642692,3.5,4,Right and left,Beach-break,All surfers,2,4,1,3.5,Santa Catarina,0.4467529198,0.4983046478,0.4843614919,0.4468357343,Sul,0,0.29232135232,0,0.4155049645,0.4155049645,0.2624095906
242,241,Sul,Santa Catarina South,Rosa Norte,-28.124375,-48.637676,3.5,2,Right and left,Beach-break,All surfers,2,2,1,3.5,Santa Catarina,0.4572915598,0.5168985955,0.4536545116,0.4493852276,Sul,0,0.319981773147,0,0.4548214294,0.4548214294,0.2872396609
243,242,Sul,Santa Catarina South,Vermelha,-28.114458,-48.635573,3.5,2,Left,Beach-break,Experienced surfers,1,2,0,3.5,Santa Catarina,0.3120100775,0.3639271164,0.3098145584,0.2468193476,Sul,0,0.373703056777,0,0.5311807506,0.5311807506,0.3354639179
244,243,Sul,Santa Catarina South,Ouvidor,-28.105449,-48.635273,2,2,Right and left,Beach-break,Beginners wave,2,2,0,2,Santa Catarina,0.3356799251,0.3690335453,0.352584313,0.2749721957,Sul,0,0.377553220716,0,0.5366533657,0.5366533657,0.3389201142
245,244,Sul,Santa Catarina South,Barrinha,-28.085384,-48.630896,3.5,3,Right and left,Beach-break,NA,2,3,1,3.5,Santa Catarina,0.4683201201,0.5045609992,0.4882116433,0.4739090121,Sul,0,0.292136242436,0,0.4152418497,0.4152418497,0.2622434221
246,245,Sul,Santa Catarina South,Ferrugem,-28.077736,-48.626604,3.5,4,Right and left,Sand-bar,All surfers,2,4,1,3.5,Santa Catarina,0.471254821,0.5147380495,0.4519384518,0.4792238191,Sul,0,0.287873239612,0,0.4091824263,0.4091824263,0.2584166307
247,246,Sul,Santa Catarina South,Praia do Silveira,-28.039069,-48.606863,4,4,Right,Point-break,Pros or kamikaze only...,1,4,0,4,Santa Catarina,0.29714162,0.2501877413,0.2709197674,0.2831223089,Sul,0,0.230999079991,0,0.3283416137,0.3283416137,0.2073621155
248,247,Sul,Santa Catarina South,Garopaba Centro,-28.021577,-48.619448,3,2,Right and left,Beach-break,All surfers,2,2,1,3,Santa Catarina,0.4120624487,0.3693106255,0.2686716072,0.4282159755,Sul,0,0.227846359973,0,0.323860344,0.323860344,0.2045319973
249,248,Sul,Santa Catarina South,Siriu,-27.976249,-48.627999,3.5,3,Right and left,Beach-break,All surfers,2,3,1,3.5,Santa Catarina,0.5148932848,0.460224592,0.5232016354,0.5785036462,Sul,0,0.171864881586,0,0.2442883866,0.2442883866,0.1542788198
250,249,Sul,Santa Catarina South,Gamboa,-27.958927,-48.624662,3.5,1,Right and left,Beach-break,All surfers,2,1,1,3.5,Santa Catarina,0.5842738649,0.4965873043,0.4614048015,0.6446201098,Sul,0,0.225777458354,0,0.3209196115,0.3209196115,0.2026747959
251,250,Sul,Santa Catarina South,Guarda do embau,-27.905541,-48.586779,4,3,Left,Rivermouth,Experienced surfers,1,3,0,4,Santa Catarina,0.5322018973,0.5435508959,0.581937528,0.5516437409,Sul,2176.59802437,0.296594974597,0.0019541356,0.4215794824,0.423533618,0.2674800371
252,251,Sul,Santa Catarina South,Costão da Pinheira,-27.881077,-48.586543,3.5,1,Right,Point-break,Experienced surfers,1,1,0,3.5,Santa Catarina,0.5242635504,0.5422608308,0.2822022089,0.5323580049,Sul,31244.7337208,0.302522661283,0.0280513196,0.4300050839,0.4580564035,0.2892826888
5,4,Sul,NA,Ponta da Pinheira,-27.878141,-48.576442,NA,NA,NA,NA,NA,1,1,1,1,Santa Catarina,0.4958933804,0.4762826353,0.3404760084,0.498553094,Sul,25301.6056786,0.301821618934,0.0227156177,0.4290086238,0.4517242415,0.285283651
253,252,Sul,Florianopolis,Naufragados,-27.83474,-48.566748,5,3,Right,Beach-break,Pros or kamikaze only...,1,3,0,5,Santa Catarina,0.5647315572,0.475334453,0.5538952408,0.582727655,Sul,32242.7647648,0.302661732424,0.0289473454,0.4302027594,0.4591501048,0.2899734091
254,253,Sul,Santa Catarina South,Solidao - Caladinho,-27.793519,-48.533456,3.5,3,Right,Point-break,Experienced surfers,1,3,0,3.5,Santa Catarina,0.400763095,0.4304106021,0.4475506197,0.3928561588,Sul,6016.09392738,0.279168230186,0.0054012102,0.396809144,0.4022103542,0.2540134617
255,254,Sul,Santa Catarina South,Praia dos Açores,-27.784758,-48.525989,3,3,Right and left,Beach-break,All surfers,2,3,1,3,Santa Catarina,0.5491203526,0.582220616,0.4210210398,0.57911484,Sul,333.875936508,0.281416339177,2.997517e-4,0.4000046014,0.4003043531,0.2528097385
256,255,Sul,Florianopolis,Lagoinha do Leste,-27.773576,-48.486528,3.5,4,Right and left,Beach-break,All surfers,2,4,1,3.5,Santa Catarina,0.5423230344,0.5022147177,0.6064644277,0.6034944462,Sul,120.461288452,0.19608752988,1.081494e-4,0.2787184087,0.2788265581,0.1760911884
257,256,Sul,Florianopolis,Matadeiro,-27.75514,-48.498523,3.5,4,Right and left,Beach-break,Experienced surfers,2,4,0,3.5,Santa Catarina,0.4283723427,0.4805768337,0.4096565061,0.4721699671,Sul,4816.94838333,0.16365096806,0.0043246251,0.2326131469,0.236937772,0.1496365846
258,257,Sul,Florianopolis,Armação,-27.741619,-48.508115,3,2,Right and left,Beach-break,All surfers,2,2,1,3,Santa Catarina,0.491591252,0.546256637,0.54711557,0.5369321719,Sul,61979.9353714,0.164931176027,0.0556451846,0.2344328319,0.2900780165,0.1831969773
259,258,Sul,Florianopolis,Caldeirao,-27.72369,-48.504596,3.5,3,Left,Beach-break,Experienced surfers,1,3,0,3.5,Santa Catarina,0.5396069357,0.3604849611,0.3108846615,0.5536020711,Sul,232614.461908,0.170046202244,0.2088397573,0.2417033195,0.4505430768,0.2845376938
260,259,Sul,Florianopolis,Morro das Pedras,-27.715522,-48.502257,3,4,Right and left,Sand-bar,Experienced surfers,2,4,0,3,Santa Catarina,0.6233717927,0.4002974917,0.3156257978,0.6448123773,Sul,287626.808069,0.170801784063,0.2582294854,0.242777302,0.5010067874,0.3164077381
261,260,Sul,Florianopolis,Campeche Rights,-27.693864,-48.482687,4,2,Right,Sand-bar,Experienced surfers,1,2,0,4,Santa Catarina,0.5696653606,0.2916754907,0.1817342424,0.5777213628,Sul,288316.240461,0.169978618454,0.2588484534,0.2416072561,0.5004557095,0.3160597083
262,261,Sul,Florianopolis,Riozinho,-27.685523,-48.479598,5,3,Right and left,Beach-break,Experienced surfers,2,3,0,5,Santa Catarina,0.6760550113,0.4072683456,0.3243709965,0.7102147289,Sul,288316.240461,0.171813173416,0.2588484534,0.2442148887,0.5030633421,0.3177065425
263,262,Sul,Florianopolis,Joaquina,-27.629589,-48.448768,4,4,Left,Sand-bar,Experienced surfers,1,4,0,4,Santa Catarina,0.3615576903,0.2915502257,0.3766292881,0.3412271434,Sul,196582.49107,0.165411912074,0.1764904873,0.2351161491,0.4116066364,0.2599476256
264,263,Sul,Florianopolis,Praia Mole,-27.602476,-48.432584,3.5,3,Right and left,Sand-bar,All surfers,2,3,1,3.5,Santa Catarina,0.4708667764,0.4632286415,0.4292528086,0.5110517338,Sul,44766.6933155,0.175630690548,0.0401912473,0.2496410996,0.2898323469,0.1830418262
265,264,Sul,Florianopolis,Galheta,-27.593482,-48.425224,3.5,4,Right and left,Beach-break,All surfers,2,4,1,3.5,Santa Catarina,0.472612654,0.4532099706,0.6097935682,0.5180745012,Sul,22261.022398,0.177277190497,0.0199858017,0.2519814313,0.271967233,0.171759224
266,265,Sul,Florianopolis,Barra da Lagoa,-27.572818,-48.424376,3,3,Right and left,Beach-break,Beginners wave,2,3,0,3,Santa Catarina,0.3934324135,0.3794444153,0.2928554977,0.4134712097,Sul,44715.0096626,0.177308281558,0.0401448461,0.252025624,0.2921704701,0.1845184535
267,266,Sul,Florianopolis,Mocambique,-27.525323,-48.410568,3.5,4,Right and left,Beach-break,All surfers,2,4,1,3.5,Santa Catarina,0.5589045961,0.5172968214,0.5364325755,0.6250626739,Sul,38954.2398796,0.169459005776,0.0349728643,0.2408686797,0.275841544,0.1742060212
6,5,Sul,NA,Mocambique,-27.51835,-48.39218333,NA,NA,NA,NA,NA,1,1,1,1,Santa Catarina,0.3294274971,0.3023225874,0.2225004704,0.3428217536,Sul,17994.1841259,0.169540787809,0.016155062,0.2409849245,0.2571399865,0.1623951682
268,267,Sul,Santa Catarina South,Ponta das Aranhas,-27.4821,-48.380892,3.5,4,Right and left,Beach-break,All surfers,2,4,1,3.5,Santa Catarina,0.487387732,0.500825671,0.5097643139,0.5529594701,Sul,5681.21506119,0.145169065057,0.0051005581,0.2063430083,0.2114435664,0.1335358767
269,268,Sul,Florianopolis,Santinho,-27.45794,-48.372631,3.5,4,Right and left,Beach-break,Experienced surfers,2,4,0,3.5,Santa Catarina,0.4026519124,0.4048778249,0.3161222143,0.4503958514,Sul,0,0.139597160253,0,0.1984231143,0.1984231143,0.1253128907
270,269,Sul,Florianopolis,Canasvieiras,-27.430966,-48.479662,3.5,1,Right,Sand-bar,All surfers,1,1,1,3.5,Santa Catarina,0.477883049,0.320206231,0.2670125374,0.4449548634,Sul,249381.0714,0.240968191362,0.2238927107,0.3425116879,0.5664043986,0.357709195
271,270,Sul,Florianopolis,Praia do Forte,-27.430747,-48.519659,3.5,1,Right,Point-break,All surfers,1,1,1,3.5,Santa Catarina,0.5082648603,0.3834629899,0.3635271715,0.449548753,Sul,247028.282564,0.32935792734,0.2217803922,0.4681486755,0.6899290677,0.43572043580000003
272,271,Sul,Florianopolis,Ingleses,-27.429833,-48.39057,3,2,Right and left,Beach-break,All surfers,2,2,1,3,Santa Catarina,0.4750120743,0.4772835589,0.4012698101,0.5431535713,Sul,3052.02251244,0.132048605461,0.002740086,0.1876936142,0.1904337002,0.1202672256
273,272,Sul,Florianopolis,Praia Brava,-27.400804,-48.413401,3.5,3,Right and left,Beach-break,Experienced surfers,2,3,0,3.5,Santa Catarina,0.3912803972,0.3880181996,0.3833446786,0.4451994862,Sul,6657.12937164,0.111900181788,0.0059767276,0.1590546865,0.1650314141,0.1042245689
274,273,Sul,Santa Catarina South,Praia Brava,-27.396441,-48.41413,3,4,Right and left,Sand-bar,All surfers,2,4,1,3,Santa Catarina,0.4513653776,0.4574142709,0.445621571,0.5214134389,Sul,4742.51325035,0.110542670773,0.0042577977,0.1571251232,0.1613829209,0.1019203856
7,6,Sul,NA,Ponta das Canas,-27.394819,-48.435709,NA,NA,NA,NA,NA,1,1,1,1,Santa Catarina,0.2244128116,0.2799239678,0.2265723803,0.2306066457,Sul,13332.5432644,0.122431117731,0.011969871,0.1740233371,0.1859932081,0.1174628603
275,274,Sul,Florianopolis,Lambe lambe,-27.387601,-48.433185,4,1,Right,Point-break,Experienced surfers,1,1,0,4,Santa Catarina,0.2642119278,0.328366001,0.2835927327,0.2827670628,Sul,7286.48430634,0.120190057373,0.0065417584,0.1708378985,0.1773796569,0.1120230253
276,275,Sul,Florianopolis,Ponta Do Rapa,-27.380837,-48.420525,4,1,Right,Reef-rocky,Pros or kamikaze only...,1,1,0,4,Santa Catarina,0.2614831841,0.3350122111,0.3285156477,0.28089723640000003,Sul,181.3938694,0.120659145896,1.628542e-4,0.17150466,0.1716675142,0.1084155569
277,276,Sul,Santa Catarina North,Tingua,-27.368166,-48.532501,3.5,1,Left,Beach-break,Experienced surfers,1,1,0,3.5,Santa Catarina,0.3752955166,0.385057021,0.4815380082,0.3491159269,Sul,0,0.313772996916,0,0.4459962877,0.4459962877,0.2816661972
278,277,Sul,Santa Catarina North,Palmas,-27.321984,-48.535452,3.5,2,Right and left,Beach-break,Experienced surfers,2,2,0,3.5,Santa Catarina,0.4444611403,0.4216734318,0.4302629276,0.4375282042,Sul,0,0.309050983801,0,0.439284428,0.439284428,0.2774273637
279,278,Sul,Santa Catarina North,Mariscal,-27.166504,-48.494833,3.5,3,Right and left,Beach-break,All surfers,2,3,1,3.5,Santa Catarina,0.6604069754,0.6461227859,0.5280915978,0.7025179939,Sul,0,0.323013795352,0,0.4591311395,0.4591311395,0.2899614317
280,279,Sul,Santa Catarina North,Quatro Ilhas,-27.156195,-48.482924,3.5,3,Right,Point-break,Experienced surfers,1,3,0,3.5,Santa Catarina,0.4893639218,0.4312146244,0.4567058394,0.491160213,Sul,0,0.315770858215,0,0.4488360436,0.4488360436,0.2834596275
281,280,Sul,Santa Catarina North,Bombinhas,-27.148367,-48.489532,2,2,Right and left,Beach-break,Beginners wave,2,2,0,2,Santa Catarina,0.5103712001,0.488928634,0.2621741949,0.5164661122,Sul,0,0.318356662636,0,0.4525115007,0.4525115007,0.2857808397
282,281,Sul,Santa Catarina North,Bombas,-27.140118,-48.506784,3,2,Right and left,Beach-break,All surfers,2,2,1,3,Santa Catarina,0.6189961913,0.6125169752,0.4200160926,0.647084433,Sul,3618.34296227,0.33005025268,0.0032485249,0.4691327453,0.4723812702,0.2983294697
283,282,Sul,Santa Catarina North,Meia Praia,-27.104825,-48.609009,3,3,Right and left,Sand-bar,All surfers,2,3,1,3,Santa Catarina,0.6227399539,0.5270414056,0.3875837513,0.6597680901,Sul,11860.7739506,0.304065391356,0.010648526,0.4321979173,0.4428464433,0.2796769325
284,283,Sul,Santa Catarina North,Itapema,-27.095541,-48.609738,3,3,Right and left,Beach-break,All surfers,2,3,1,3,Santa Catarina,0.6185769518,0.582631965,0.3822057634,0.6607794341,Sul,11860.7739506,0.287893986358,0.010648526,0.4092119157,0.4198604417,0.2651602653
285,284,Sul,Santa Catarina North,Ponta do Cabeço,-27.093436,-48.60196,4,2,Left,Reef-rocky,Experienced surfers,1,2,0,4,Santa Catarina,0.4898570586,0.4504133256,0.3193038925,0.4966908726,Sul,11860.7739506,0.295512267285,0.010648526,0.4200405244,0.4306890504,0.2719990062
286,285,Sul,Santa Catarina North,Mocó,-27.080182,-48.588452,4,2,Left,Reef-rocky,Experienced surfers,1,2,0,4,Santa Catarina,0.4786201126,0.4889311454,0.2954678819,0.4796236793,Sul,14705.5945415,0.301507174123,0.0132025875,0.4285616726,0.4417642601,0.2789934864
287,286,Sul,Santa Catarina North,Estaleirinho,-27.049112,-48.586779,3,4,Right and left,Beach-break,Pros or kamikaze only...,2,4,0,3,Santa Catarina,0.4778300263,0.5502878742,0.6017007839,0.5109752994,Sul,2844.82059097,0.22496175615,0.0025540615,0.3197601741,0.3223142356,0.2035555621
288,287,Sul,Santa Catarina North,Estaleiro (reef),-27.02505,-48.574065,3.5,2,Left,Reef-rocky,Experienced surfers,1,2,0,3.5,Santa Catarina,0.4055572946,0.45975137,0.5335015187,0.4297551321,Sul,2844.82059097,0.20088688164,0.0025540615,0.2855401973,0.2880942588,0.1819441474
289,288,Sul,Santa Catarina North,Balneário Camboriú,-26.987712,-48.629951,3,3,Right and left,Beach-break,All surfers,2,3,1,3,Santa Catarina,0.5486735142,0.4374051675,0.364719824,0.5967882113,Sul,2844.82059097,0.232452723757,0.0025540615,0.3304078199,0.3329618814,0.210280017
290,289,Sul,Santa Catarina North,Parcel,-26.976469,-48.623171,4,1,Right and left,Reef-rocky,Pros or kamikaze only...,2,1,0,4,Santa Catarina,0.5098905066,0.430785842,0.5636988617,0.5489405627,Sul,2844.82059097,0.230611681413,0.0025540615,0.3277909661,0.3303450276,0.2086273592
291,290,Sul,Santa Catarina North,Praia dos Amores,-26.957191,-48.629222,3,2,Right and left,Beach-break,Experienced surfers,2,2,0,3,Santa Catarina,0.3273385729,0.4642717256,0.382753469,0.3134490955,Sul,2844.82059097,0.248637993099,0.0025540615,0.3534135282,0.3559675897,0.2248091298
292,291,Sul,Santa Catarina North,Praia Brava,-26.94166,-48.628235,3,3,Right and left,Beach-break,Experienced surfers,2,3,0,3,Santa Catarina,0.4708131155,0.4839420087,0.4016882625,0.4830872067,Sul,2844.82059097,0.27460043451,0.0025540615,0.3903164887,0.3928705502,0.2481149663
293,292,Sul,Santa Catarina North,Morcego,-26.931052,-48.625215,3.5,NA,Left,Point-break,Pros or kamikaze only...,1,1,0,3.5,Santa Catarina,0.4148078127,0.3964597968,0.3149273175,0.409382185,Sul,2844.82059097,0.283920223592,0.0025540615,0.4035636175,0.406117679,0.2564811085
294,293,Sul,Santa Catarina North,Atalaia,-26.915163,-48.639361,3.5,2,Left,breakwater/jetty,All surfers,1,2,1,3.5,Santa Catarina,0.4825714765,0.6014335245,0.3849631638,0.4945675988,Sul,0,0.284819044126,0,0.4048411992,0.4048411992,0.2556749556
295,294,Sul,Santa Catarina North,Pracinha,-26.901884,-48.641614,3.5,4,Right and left,Beach-break,All surfers,2,4,1,3.5,Santa Catarina,0.5832097863,0.5793208306,0.3192125515,0.6060592841,Sul,0,0.322515322257,0,0.4584226108,0.4584226108,0.2895139647
296,295,Sul,Santa Catarina North,Navegantes,-26.897578,-48.638706,3.5,3,Right and left,Beach-break,All surfers,2,3,1,3.5,Santa Catarina,0.5794750487,0.6114634924,0.3744941229,0.6048578056,Sul,0,0.313487164519,0,0.4455900061,0.4455900061,0.2814096126
297,296,Sul,Santa Catarina North,Garrincha,-26.858703,-48.634619,3,2,Right and left,Sand-bar,Experienced surfers,2,2,0,3,Santa Catarina,0.4040250843,0.607574622,0.3581182391,0.39643233,Sul,655.271619797,0.283873845609,5.882986e-4,0.403497696,0.4040859946,0.2551980108
298,297,Sul,Santa Catarina North,Gravatá (1 e 2),-26.831883,-48.621969,3,3,Right and left,Beach-break,All surfers,2,3,1,3,Santa Catarina,0.5998875312,0.4316633931,0.4949172107,0.6393490518,Sul,9407.2320385,0.284328103418,0.008445752,0.4041433771,0.4125891291,0.2605681128
299,298,Sul,Santa Catarina North,Gravatá,-26.83173,-48.623428,3,3,Right and left,Beach-break,All surfers,2,3,1,3,Santa Catarina,0.5986796153,0.43115198,0.484800263,0.6378367463,Sul,9407.2320385,0.284328103418,0.008445752,0.4041433771,0.4125891291,0.2605681128
300,299,Sul,Santa Catarina North,Quilombo,-26.766993,-48.639414,3.5,2,Left,Beach-break,All surfers,1,2,1,3.5,Santa Catarina,0.5036147118,0.4448492423,0.5418324573,0.5196441042,Sul,9434.79108429,0.282158632808,0.0084704943,0.4010596961,0.4095301904,0.258636259
301,300,Sul,Santa Catarina North,Quilombo (reef),-26.765743,-48.640144,3.5,2,Right,Point-break,All surfers,1,2,1,3.5,Santa Catarina,0.5032047253,0.4070544272,0.5516415974,0.5192168721,Sul,9434.79108429,0.28193498337,0.0084704943,0.4007418012,0.4092122955,0.2584354944
302,301,Sul,Santa Catarina North,molhe de Piçarras,-26.757026,-48.673435,3,1,Right,Point-break,All surfers,1,1,1,3,Santa Catarina,0.4995848586,0.4663894227,0.3301931691,0.4878653872,Sul,9434.79108429,0.351624788043,0.0084704943,0.4997987452,0.5082692395,0.3209942948
303,302,Sul,Santa Catarina North,Laje do Jacques,-26.726916,-48.67306,4,2,Right and left,Reef-rocky,Experienced surfers,2,2,0,4,Santa Catarina,0.5133530414,0.4793677274,0.4010433375,0.5019611464,Sul,9434.79108429,0.359789077243,0.0084704943,0.5114034489,0.5198739432,0.3283231737
304,303,Sul,Santa Catarina North,Syphodys,-26.701371,-48.680248,3,2,Right and left,Beach-break,Experienced surfers,2,2,0,3,Santa Catarina,0.4960069503,0.4488048545,0.3718229173,0.489045826,Sul,7965.03347015,0.337845810521,0.0071509555,0.4802133351,0.4873642906,0.3077919036
305,304,Sul,Santa Catarina North,ilha do grants,-26.696032,-48.674991,3.5,1,Left,Reef-rocky,Pros or kamikaze only...,1,1,0,3.5,Santa Catarina,0.435408828,0.3450258471,0.3799952299,0.4151040472,Sul,3937.87990189,0.335382702581,0.0035354031,0.4767122786,0.4802476817,0.3032974533
306,305,Sul,Santa Catarina North,barra de Itajuba,-26.691345,-48.684164,3,1,Right,Point-break,All surfers,1,1,1,3,Santa Catarina,0.4722614337,0.4025975746,0.3634869118,0.471262481,Sul,55.8622741699,0.311800152011,5.01528e-5,0.44319209,0.4432422428,0.2799268972
307,306,Sul,Santa Catarina North,Praia do Sol,-26.679962,-48.688166,2,3,Right and left,Point-break,All surfers,2,3,1,2,Santa Catarina,0.472265416,0.4333972052,0.3854009122,0.472481384,Sul,55.8622741699,0.308645809606,5.01528e-5,0.4387085143,0.4387586671,0.2770953227
308,307,Sul,Santa Catarina North,Praia do Tabuleiro,-26.643014,-48.682051,3,2,Right and left,Beach-break,Beginners wave,2,2,0,3,Santa Catarina,0.4124821639,0.3597423572,0.2548621549,0.3801782448,Sul,8061.5528698,0.348945105993,0.00723761,0.4959898507,0.5032274607,0.3178101906
309,308,Sul,Santa Catarina North,Canoas,-26.639403,-48.682501,2,3,Right and left,Beach-break,Beginners wave,2,3,0,2,Santa Catarina,0.3758923002,0.2931384642,0.199618213,0.3301532805,Sul,8061.5528698,0.35989670902300003,0.00723761,0.5115564365,0.5187940465,0.3276411716
310,309,Sul,Santa Catarina North,Barrinha,-26.623905,-48.679991,3.5,3,Right and left,Beach-break,All surfers,2,3,1,3.5,Santa Catarina,0.5380821579,0.4352318283,0.3679830729,0.5259707223,Sul,8061.5528698,0.378718941658,0.00723761,0.538310319,0.545547929,0.3445374206
311,310,Sul,Santa Catarina North,Foz do Itapocu,-26.580708,-48.663769,3,3,Left,breakwater/jetty,All surfers,1,3,1,3,Santa Catarina,0.4091163923,0.4518374307,0.4865569531,0.3874180596,Sul,8061.969884869999,0.319182487687,0.0072379843,0.4536853267,0.460923311,0.2910932665
312,311,Sul,Santa Catarina South,Foz do Itapocu,-26.566919,-48.657525,3.5,4,Right and left,Beach-break,All surfers,2,4,1,3.5,Santa Catarina,0.5278489973,0.5583346627,0.5293719386,0.5315274034,Sul,8061.969884869999,0.330988319929,0.0072379843,0.4704661122,0.4777040965,0.3016910678
313,312,Sul,Santa Catarina North,Praia do Bispo,-26.469248,-48.607056,3,4,Right and left,Beach-break,All surfers,2,4,1,3,Santa Catarina,0.5366204201,0.539642142,0.4276103455,0.4997870397,Sul,46342.0469856,0.417822320484,0.0416055896,0.5938917806,0.6354973702,0.4013444339
314,313,Sul,Santa Catarina North,Picama,-26.458087,-48.596874,3,3,Right and left,Sand-bar,Experienced surfers,2,3,0,3,Santa Catarina,0.43010287,0.4482845114,0.398539638,0.3694584449,Sul,46398.6876392,0.409910776466,0.0416564413,0.5826463284,0.6243027697,0.3942745532
315,314,Sul,Santa Catarina North,"Praia Grande, São Francisco do Sul",-26.23588,-48.5026,3,3,Right and left,Beach-break,All surfers,2,3,1,3,Santa Catarina,0.7776855064,0.5315115689,0.5032873336,0.820951792,Sul,152803.273026,0.300291857883,0.1371857889,0.4268342246,0.5640200135,0.3562033513
316,315,Sul,Santa Catarina South,Praia da Saudade,-26.230606,-48.498888,3.5,4,Right and left,Beach-break,All surfers,2,4,1,3.5,Santa Catarina,0.7894505397,0.5346690716,0.5328941932,0.8366223794,Sul,144397.089787,0.30315673434,0.129638772,0.4309063541,0.5605451261,0.3540088077
317,316,Sul,Santa Catarina South,Sao Francisco do Sul,-26.219558,-48.502107,3,1,Right,Sand-bar,Beginners wave,1,1,0,3,Santa Catarina,0.5829755598,0.3303937212,0.0923228165,0.5769984394,Sul,154107.773638,0.299928748876,0.1383569611,0.4263181022,0.5646750633,0.356617044
318,317,Sul,Santa Catarina South,Píer da Petrobras,-26.217387,-48.500519,3.5,2,Right,Point-break,All surfers,1,2,1,3.5,Santa Catarina,0.6810421714,0.4350333352,0.2015224313,0.7019157108,Sul,150144.700228,0.296875589554,0.1347989394,0.4219783479,0.5567772873,0.3516292524
8,7,Sul,NA,Itagua&ccedil;u,-26.184728,-48.526328,NA,NA,NA,NA,NA,1,1,1,1,Santa Catarina,0.5590988122,0.3913833137,0.2126871869,0.5447621591,Sul,179450.89278,0.290008803065,0.1611098493,0.4122179118,0.5733277611,0.3620816018
319,318,Sul,Santa Catarina North,Sumidouro,-26.169526,-48.552479,3.5,1,Right and left,Beach-break,Experienced surfers,2,1,0,3.5,Santa Catarina,0.6607323399,0.4859492552,0.6045883303,0.6734303912,Sul,214242.38957,0.264334607303,0.1923454298,0.3757246631,0.5680700929,0.3587611539
320,319,Sul,Santa Catarina North,Praia do Forte,-26.163306,-48.53322,3.5,1,Right,Point-break,All surfers,1,1,1,3.5,Santa Catarina,0.6371749106,0.4822059294,0.5598615479,0.6537739398,Sul,158378.877918,0.274057347356,0.1421915308,0.3895445457,0.5317360765,0.3358146306
321,320,Sul,Santa Catarina North,Terceira Pedra,-26.067009,-48.607646,3.5,3,Right,Point-break,All surfers,1,3,1,3.5,Santa Catarina,0.4570198289,0.3653423424,0.1771583519,0.4673318534,Sul,27551.1471901,0.255061714401,0.0247352415,0.3625441924,0.3872794339,0.2445839313
322,321,Sul,Santa Catarina North,Barra do sai mirim,-26.007832,-48.604061,3,3,Right and left,Beach-break,All surfers,2,3,1,3,Santa Catarina,0.620688868,0.6410877995,0.7184907976,0.6263537944,Sul,105945.418699,0.324792653442,0.0951171107,0.4616596047,0.5567767154,0.3516288912
323,322,Sul,Parana,Barrinha,-25.976699,-48.590727,3,2,Right,Beach-break,Experienced surfers,1,2,0,3,Paraná,0.4990728332,0.4923572565,0.4241324565,0.4374473589,Sul,183502.098988,0.371023732053,0.164746996,0.527372364,0.69211936,0.4371037014
324,323,Sul,Parana,Guaratuba Praia Brava,-25.897758,-48.564291,3,3,Right and left,Beach-break,All surfers,2,3,1,3,Paraná,0.9113109263,0.4336587706,0.3455900854,0.9069712651,Sul,635010.843277,0.206918410981,0.5701086223,0.2941134006,0.8642220229,0.5457940738
325,324,Sul,Parana,Praia Brava Guaratuba,-25.892817,-48.561459,3.5,3,Right and left,Beach-break,All surfers,2,3,1,3.5,Paraná,0.9352232445,0.4577063808,0.4171684715,0.9367994563,Sul,647596.25259,0.199254766129,0.5814077213,0.2832203117,0.864628033,0.5460504869
326,325,Sul,Parana,Direitas de Guaratuba,-25.890046,-48.560289,4,2,Right,Point-break,Experienced surfers,1,2,0,4,Paraná,0.7864266383,0.3234493602,0.25287197,0.7529196538,Sul,657029.259914,0.187026755077,0.5898766142,0.2658394422,0.8557160564,0.5404221832
9,8,Sul,NA,Caioba,-25.838,-48.535,NA,NA,NA,NA,NA,1,1,1,1,Paraná,0.4855102392,0.3552015733,0.2490752587,0.4413388356,Sul,452319.531183,0.146996382441,0.4060895456,0.2089403534,0.615029899,0.3884183291
518,517,Sul,Parana,Brava de Matinhos,-25.834492,-48.535465,3,3,Right and left,Beach-break,All surfers,2,3,1,3,Paraná,0.6562367207,0.5171743631,0.3923033969,0.6531242993,Sul,459670.842196,0.147454805302,0.412689505,0.2095919547,0.6222814597,0.3929980074
327,326,Sul,Parana,Pico de Matinhos,-25.817818,-48.529701,3.5,3,Right,Point-break,Experienced surfers,1,3,0,3.5,Paraná,0.5088937134,0.3561059521,0.183348442,0.4825025277,Sul,388242.067879,0.15657951045,0.348561214,0.2225617917,0.5711230057,0.3606892021
519,518,Sul,Parana,Pontal do Sul,-25.579974,-48.347616,3,3,Right and left,Beach-break,All surfers,2,3,1,3,Paraná,0.5559951028,0.4740396209,0.3550185548,0.5233502562,Sul,111773.087156,0.37829712934,0.1003491537,0.5377107558,0.6380599095,0.4029627898
328,327,Sul,Parana,Ilha do Mel,-25.548327,-48.295383,3.5,3,Right and left,Beach-break,All surfers,2,3,1,3.5,Paraná,0.5367669396,0.5025462039,0.5629276336,0.5288532375,Sul,13058.159132,0.363794000866,0.0117235307,0.5170960391,0.5288195698,0.3339727288
329,328,Sul,Parana,Farolete,-25.515314,-48.286114,3.5,4,Left,Point-break,Experienced surfers,1,4,0,3.5,Paraná,0.5123702542,0.3691548244,0.1607523142,0.4489267553,Sul,181184.825579,0.385918722123,0.1626665629,0.548544072,0.7112106349,0.449160678
10,9,Sudeste,NA,Ilha Comprida,-24.784,-47.595,NA,NA,NA,NA,NA,1,1,1,1,São Paulo,0.3382587852,0.3495099835,0.238946798,0.3531424293,Sudeste,170109.182089,0.0753734595487,0.1527229219,0.1071356792,0.2598586011,0.1641120924
11,10,Sudeste,NA,Iguape,-24.753211,-47.542059,NA,NA,NA,NA,NA,1,1,1,1,São Paulo,0.3335451173,0.2520194062,0.2811419007,0.2986559221,Sudeste,252001.905258,0.149895089274,0.2262456784,0.2130605693,0.4393062477,0.2774411438
520,519,Sudeste,Sao Paolo South,Desertinha,-24.43082,-47.048065,3.5,3,Right and left,Beach-break,All surfers,2,3,1,3.5,São Paulo,0.9730791633,0.9028243672,0.8057994976,0.9668527155,Sudeste,275340.235155,0.479445132973,0.2471986798,0.6814823186,0.9286809984,0.5865027411
330,329,Sudeste,Sao Paolo South,"Guarau, Peruibe SP",-24.369537,-47.0117,3,4,Right and left,Beach-break,All surfers,2,4,1,3,São Paulo,0.8471212674,0.8727588128,0.7136128177,0.8693884764,Sudeste,173370.159531,0.387333941046,0.1556506064,0.5505556613,0.7062062677,0.4460002008
12,11,Sudeste,NA,Peruibe,-24.324427,-46.978886,NA,NA,NA,NA,NA,1,1,1,1,São Paulo,0.4218674898,0.3138479193,0.2058645965,0.3691303347,Sudeste,65744.5763474,0.371751910708,0.0590250548,0.5284073956,0.5874324504,0.3709893311
521,520,Sudeste,Sao Paolo South,Cibratel,-24.208026,-46.827104,3.5,NA,Right and left,Beach-break,All surfers,2,1,1,3.5,São Paulo,0.693542166,0.4896632118,0.386462428,0.7027305815,Sudeste,142189.395483,0.340449035686,0.1276567183,0.4839135539,0.6115702722,0.3862334231
13,12,Sudeste,NA,Praia dos Pescadores,-24.194862,-46.798882,NA,NA,NA,NA,NA,1,1,1,1,São Paulo,0.4988408767,0.5865517784,0.3685375944,0.4662695204,Sudeste,142189.395483,0.321469463194,0.1276567183,0.4569360289,0.5845927472,0.3691959341
14,13,Sudeste,NA,Itanhaem,-24.151427,-46.707858,NA,NA,NA,NA,NA,1,1,1,1,São Paulo,0.4646242294,0.2511792696,0.3244528429,0.4502378122,Sudeste,13066.6500759,0.33336838485,0.0117311538,0.4738491315,0.4855802853,0.3066652261
331,330,Sudeste,Sao Paolo South,Pier de Mongaguá,-24.095718,-46.618552,3.5,4,Right and left,Beach-break,All surfers,2,4,1,3.5,São Paulo,0.5807156632,0.593869454,0.5358071328,0.5964036068,Sudeste,0,0.339491325961,0,0.4825522673,0.4825522673,0.3047529001
15,14,Sudeste,NA,Praia Grande,-24.028497,-46.43831,NA,NA,NA,NA,NA,1,1,1,1,São Paulo,0.3777617048,0.29932908,0.3057428981,0.2538990903,Sudeste,561329.067032,0.214664791943,0.5039576008,0.3051240905,0.8090816913,0.5109705384
16,15,Sudeste,NA,Praia do Forte dos Andradas,-24.028369,-46.288159,NA,NA,NA,NA,NA,1,1,1,1,São Paulo,0.4048784383,0.4234537739,0.392386428,0.380938022,Sudeste,38820.3635883,0.302805626871,0.034852671,0.4304072906,0.4652599616,0.2938320513
17,16,Sudeste,NA,Praia do Forte dos Andradas,-24.02566,-46.28546,NA,NA,NA,NA,NA,1,1,1,1,São Paulo,0.4024339783,0.4166129394,0.4003086039,0.3774889383,Sudeste,45288.7685223,0.299729856136,0.0406599631,0.4260353965,0.4666953596,0.2947385681
18,17,Sudeste,NA,Praia da Ponta Grossa,-24.024816,-46.314497,NA,NA,NA,NA,NA,1,1,1,1,São Paulo,0.3965943394,0.420166158,0.4202136253,0.3896884836,Sudeste,33877.3532028,0.256239286146,0.0304148683,0.3642179904,0.3946328587,0.2492279413
19,18,Sudeste,NA,Itaipu,-24.019545,-46.386796,NA,NA,NA,NA,NA,1,1,1,1,São Paulo,0.4276514199,0.3163417036,0.4157168265,0.3307845733,Sudeste,431793.382887,0.259003115652,0.3876613026,0.368146492,0.7558077946,0.4773257384
20,19,Sudeste,NA,Guaiuba,-24.017082,-46.295202,NA,NA,NA,NA,NA,1,1,1,1,São Paulo,0.3867494226,0.3843622512,0.3654727657,0.3584130056,Sudeste,57739.8563976,0.290407500859,0.0518384691,0.41278462,0.4646230891,0.2934298385
21,20,Sudeste,NA,Santos,-24.015,-46.354,NA,NA,NA,NA,NA,1,1,1,1,São Paulo,0.3983093997,0.4006345178,0.3277036794,0.3640335661,Sudeste,156231.152723,0.25120073559,0.1402633171,0.3570562051,0.4973195222,0.3140790686
333,332,Sudeste,Sao Paolo South,Tombo,-24.01499,-46.272697,3.5,4,Right and left,Beach-break,All surfers,2,4,1,3.5,São Paulo,0.6029846112,0.5653252773,0.6049585398,0.6116857807,Sudeste,117211.918427,0.298193947179,0.1052321012,0.4238522587,0.5290843599,0.3341399554
334,333,Sudeste,Sao Paulo North,Astúrias,-24.007738,-46.266475,3,2,Right and left,Beach-break,All surfers,2,2,1,3,São Paulo,0.614388139,0.514291094,0.4465840254,0.594076092,Sudeste,232442.773726,0.308268436255,0.2086856168,0.4381721166,0.6468577334,0.408519001
335,334,Sudeste,Sao Paolo South,Pitangueiras Beach,-24.000936,-46.260767,3.5,4,Right and left,Beach-break,Experienced surfers,2,4,0,3.5,São Paulo,0.575631636,0.4491488865,0.4118709445,0.513607832,Sudeste,349460.432261,0.31736616805,0.3137433127,0.4511036137,0.7648469264,0.4830343462
22,21,Sudeste,NA,Morro do Maluf,-23.99756,-46.251594,NA,NA,NA,NA,NA,1,1,1,1,São Paulo,0.4901857759,0.3492599438,0.2617862645,0.3911615641,Sudeste,395813.841616,0.328282524694,0.3553591034,0.4666201004,0.8219792038,0.5191158826
23,22,Sudeste,NA,Praia da Enseada,-23.990651,-46.209406,NA,NA,NA,NA,NA,1,1,1,1,São Paulo,0.4847311973,0.3197697883,0.2497465508,0.3831127094,Sudeste,347204.923389,0.362154725849,0.3117183315,0.514765977,0.8264843085,0.5219610536
336,335,Sudeste,Sao Paulo North,porta do sol,-23.981332,-46.373763,3.5,2,Right and left,Point-break,Experienced surfers,2,2,0,3.5,São Paulo,0.5345773986,0.3905806606,0.4127867368,0.3894689215,Sudeste,749159.019678,0.253917164773,0.6725901158,0.3609173319,1.0335074477,0.6527052369
24,23,Sudeste,NA,Embare,-23.980866,-46.317684,NA,NA,NA,NA,NA,1,1,1,1,São Paulo,0.4808112916,0.15253751,0.1697405424,0.3728132234,Sudeste,497646.938065,0.281141912337,0.4467841979,0.3996145317,0.8463987296,0.5345378831
25,24,Sudeste,NA,Gonzaga,-23.974027,-46.330098,NA,NA,NA,NA,NA,1,1,1,1,São Paulo,0.4797835026,0.1628393371,0.1755363029,0.3586158761,Sudeste,567646.606522,0.270476081166,0.5096294469,0.3844541414,0.8940835883,0.5646529607
337,336,Sudeste,Sao Paolo South,Itarare,-23.972333,-46.362004,3,3,Right and left,Beach-break,All surfers,2,3,1,3,São Paulo,0.6039705613,0.3822301189,0.3909876017,0.4554396769,Sudeste,837499.561131,0.252451011834,0.7519016818,0.3588333452,1.110735027,0.701477837
338,337,Sudeste,Sao Paolo South,Santos,-23.971744,-46.347209,3,3,Right and left,Beach-break,All surfers,2,3,1,3,São Paulo,0.6565251799,0.3840294548,0.3406598056,0.5469342274,Sudeste,709124.342636,0.266764652001,0.636647242,0.3791787236,1.0158259656,0.6415386062
339,338,Sudeste,Sao Paolo South,"Praia de Pernambuco (Pernambuco Beach, in Guaruja)",-23.963431,-46.184034,3.5,4,Right and left,Beach-break,All surfers,2,4,1,3.5,São Paulo,0.7390297283,0.5278211597,0.4874315435,0.6263841997,Sudeste,606549.426407,0.393515498584,0.5445561466,0.5593421143,1.1038982609,0.6971601196
26,25,Sudeste,NA,Pereque,-23.927583,-46.178826,NA,NA,NA,NA,NA,1,1,1,1,São Paulo,0.6454100941,0.520705375,0.3777438281,0.4673165356,Sudeste,793425.832066,0.384242117099,0.7123325733,0.5461609491,1.2584935224,0.7947938009
340,339,Sudeste,Sao Paulo North,Bonete,-23.917383,-45.347786,3.5,4,Right and left,Beach-break,Experienced surfers,2,4,0,3.5,São Paulo,0.7120269382,0.6818138904,0.6160605541,0.776994166,Sudeste,0,0.297423410043,0,0.4227570188,0.4227570188,0.2669895807
341,340,Sudeste,Sao Paulo North,Sao Pedro,-23.908522,-46.166581,4,3,Right and left,Sand-bar,All surfers,2,3,1,4,São Paulo,0.8919197572,0.7468735922,0.666987279,0.7640219595,Sudeste,789007.99614,0.418015787332,0.7083662688,0.594166774,1.3025330428,0.8226066877
342,341,Sudeste,Sao Paolo South,Praia de Iporanga,-23.902192,-46.152725,3.5,2,Left,Reef-rocky,Pros or kamikaze only...,1,2,0,3.5,São Paulo,0.6552629558,0.5369339721,0.4848059491,0.5075404154,Sudeste,641690.067829,0.407615710425,0.5761051869,0.5793841262,1.1554893131,0.7297421296
343,342,Sudeste,Sao Paolo South,Taguaíba,-23.896726,-46.151354,3.5,4,Right and left,Beach-break,All surfers,2,4,1,3.5,São Paulo,0.8243666883,0.7189873237,0.6868350222,0.7213783171,Sudeste,640735.105482,0.402708107124,0.5752478279,0.5724084691,1.147656297,0.7247952367
27,26,Sudeste,NA,Praia Preta,-23.8747,-46.138959,NA,NA,NA,NA,NA,1,1,1,1,São Paulo,0.6208310216,0.5828012161,0.5330622301,0.5004732527,Sudeste,520644.699898,0.39041813933,0.4674314395,0.5549395343,1.0223709738,0.6456720656
522,521,Sudeste,Sao Paulo North,Montão do trigo,-23.868587,-45.776427,4,2,Right,Point-break,Experienced surfers,1,2,0,4,São Paulo,0.2869350478,0.3166472633,0.3690812117,0.2976132526,Sudeste,0,0.160139699028,0,0.2276222364,0.2276222364,0.1437534157
344,343,Sudeste,Sao Paolo South,praia branca,-23.863428,-46.130796,3.5,3,Left,Beach-break,All surfers,1,3,1,3.5,São Paulo,0.7257866279,0.6223109554,0.5509389443,0.6469626485,Sudeste,476772.27187,0.378929916806,0.4280430578,0.5386101986,0.9666532564,0.6104838858
345,344,Sudeste,Sao Paulo North,Castelhanos,-23.857582,-45.288906,3.5,3,Right and left,Beach-break,Experienced surfers,2,3,0,3.5,São Paulo,0.7555111755,0.7282750629,0.6649724024,0.8529227369,Sudeste,0,0.241591132165,0,0.3433971347,0.3433971347,0.2168703367
28,27,Sudeste,NA,Praia da Bertioga,-23.846986,-46.126968,NA,NA,NA,NA,NA,1,1,1,1,São Paulo,0.6250048286,0.563689509,0.3810597312,0.5361034423,Sudeste,384420.090822,0.397455485354,0.3451298678,0.5649424034,0.9100722712,0.5747505145
346,345,Sudeste,Sao Paulo North,Enseada - Bertioga,-23.83986,-46.123674,3,4,Right and left,Beach-break,All surfers,2,4,1,3,São Paulo,0.8012290148,0.7203137883,0.4731073188,0.7559734423,Sudeste,373262.900707,0.406482475447,0.3351130147,0.5777733484,0.9128863631,0.5765277369
347,346,Sudeste,Sao Paulo North,Santiago,-23.819898,-45.54142,3.5,2,Right and left,Beach-break,Experienced surfers,2,2,0,3.5,São Paulo,0.5849738992,0.565697053,0.4040442048,0.636256904,Sudeste,0,0.249786512725,0,0.3550460316,0.3550460316,0.2242271255
348,347,Sudeste,Sao Paulo North,Guaecá,-23.819123,-45.4662,3.5,3,Right and left,Beach-break,All surfers,2,3,1,3.5,São Paulo,0.6873959485,0.6430541419,0.5818635665,0.7541534689,Sudeste,0,0.276642844252,0,0.3932195656,0.3932195656,0.2483353848
523,522,Sudeste,Sao Paulo North,Indaiá - Bertioga,-23.814194,-46.059997,3,1,Right and left,Beach-break,All surfers,2,1,1,3,São Paulo,0.6574628193,0.5136058017,0.3554587729,0.6463033308,Sudeste,93116.7946186,0.400693311603,0.0835996551,0.5695446429,0.653144298,0.412489242
349,348,Sudeste,Sao Paulo North,Riviera de São Lourenço,-23.808669,-46.022072,3,3,Right and left,Beach-break,All surfers,2,3,1,3,São Paulo,0.6133874159,0.5121086501,0.392825115,0.593843877,Sudeste,19650.9804382,0.440021276305,0.017642523,0.6254453304,0.6430878534,0.4061381566
350,349,Sudeste,Sao Paulo North,Paúba,-23.802819,-45.553168,4,2,Right and left,Beach-break,Pros or kamikaze only...,2,2,0,4,São Paulo,0.670794005,0.6557411192,0.4860712631,0.7450425695,Sudeste,0,0.246306445333,0,0.3500994711,0.3500994711,0.2211031558
524,523,Sudeste,Sao Paulo North,Praia Brava,-23.799345,-45.612668,3.5,4,Right and left,Beach-break,Experienced surfers,2,4,0,3.5,São Paulo,0.6191253574,0.5433324735,0.6921515641,0.6569104308,Sudeste,2872.28284836,0.305409018692,0.0025787169,0.4341077464,0.4366864633,0.2757866352
351,350,Sudeste,Sao Paulo North,Itaguaré,-23.796026,-45.991173,3,4,Right and left,Beach-break,All surfers,2,4,1,3,São Paulo,0.6384125446,0.5754736814,0.4990791565,0.6264618494,Sudeste,19650.9804382,0.43667801456,0.017642523,0.6206932251,0.6383357481,0.4031369939
29,28,Sudeste,NA,Maresias,-23.79369326,-45.55976434,NA,NA,NA,NA,NA,1,1,1,1,São Paulo,0.5611973608,0.5770279028,0.31230061,0.6080213969,Sudeste,0,0.245804040777,0,0.3493853543,0.3493853543,0.2206521597
30,29,Sudeste,NA,Canto de Moreira,-23.793056,-45.587394,NA,NA,NA,NA,NA,1,1,1,1,São Paulo,0.5405081014,0.5149083177,0.4612777712,0.578737873,Sudeste,0,0.254588630326,0,0.3618717517,0.3618717517,0.2285378668
352,351,Sudeste,Sao Paulo North,Maresias,-23.79153,-45.573456,3.5,4,Right and left,Beach-break,All surfers,2,4,1,3.5,São Paulo,0.7439291405,0.7607323554,0.4688859744,0.8347476381,Sudeste,0,0.251139103451,0,0.3569686013,0.3569686013,0.2254413125
31,30,Sudeste,NA,Itaguere,-23.786995,-45.971372,NA,NA,NA,NA,NA,1,1,1,1,São Paulo,0.4941721916,0.4307025824,0.4754601033,0.4297377813,Sudeste,52233.3826351,0.458026617651,0.0468947926,0.6510380853,0.6979328779,0.4407751927
32,31,Sudeste,NA,Boicucanga,-23.784431,-45.631355,NA,NA,NA,NA,NA,1,1,1,1,São Paulo,0.5818298328,0.4443779325,0.3558211965,0.5949235101,Sudeste,2872.28284836,0.345147834034,0.0025787169,0.4905924162,0.4931711331,0.3114591791
353,352,Sudeste,Sao Paulo North,Camburi,-23.778826,-45.649137,3.5,4,Right and left,Beach-break,All surfers,2,4,1,3.5,São Paulo,0.7701838521,0.6275334991,0.4807135036,0.8346158542,Sudeste,2872.28284836,0.335081475782,0.0025787169,0.4762841154,0.4788628323,0.3024228602
354,353,Sudeste,Sao Paulo North,Baleia,-23.7776,-45.670217,3.5,3,Right and left,Beach-break,All surfers,2,3,1,3.5,São Paulo,0.7660094714,0.6610742411,0.5262778984,0.8280086192,Sudeste,2872.28284836,0.338669794249,0.0025787169,0.4813845438,0.4839632607,0.3056440042
33,32,Sudeste,NA,Praia de Baleia,-23.775839,-45.683986,NA,NA,NA,NA,NA,1,1,1,1,São Paulo,0.5821290253,0.4981626236,0.4426646448,0.5962986522,Sudeste,2872.28284836,0.342547911252,0.0025787169,0.4868968913,0.4894756082,0.3091252932
34,33,Sudeste,NA,Barra do Sahy,-23.774385,-45.69757,NA,NA,NA,NA,NA,1,1,1,1,São Paulo,0.5742049409,0.5139391325,0.4619809715,0.5854483704,Sudeste,2872.28284836,0.344962844079,0.0025787169,0.4903294718,0.4929081887,0.3112931182
35,34,Sudeste,NA,Praia Preta,-23.77301,-45.715815,NA,NA,NA,NA,NA,1,1,1,1,São Paulo,0.5780160829,0.5323954482,0.4133627986,0.5782579466,Sudeste,2872.28284836,0.376045775741,0.0025787169,0.5345106865,0.5370894034,0.3391954911
355,354,Sudeste,Sao Paulo North,Guaratuba,-23.772306,-45.922251,3,3,Right and left,Beach-break,Experienced surfers,2,3,0,3,São Paulo,0.5934008346,0.5309941267,0.3487596322,0.5563924364,Sudeste,104377.739521,0.41880034476,0.0937096585,0.5952819423,0.6889916008,0.4351283844
36,35,Sudeste,NA,Bananas Point,-23.771605,-45.70621,NA,NA,NA,NA,NA,1,1,1,1,São Paulo,0.5818167087,0.5532165244,0.480366879,0.5905496791,Sudeste,2872.28284836,0.356470459219,0.0025787169,0.5066863722,0.5092650891,0.3216232175
37,36,Sudeste,NA,Praia do Juquei,-23.768115,-45.745453,NA,NA,NA,NA,NA,1,1,1,1,São Paulo,0.5633926928,0.5254983847,0.4807496104,0.553127497,Sudeste,2872.28284836,0.393772697555,0.0025787169,0.5597076964,0.5622864133,0.3551085069
356,355,Sudeste,Sao Paulo North,Juquehy,-23.768065,-45.738144,3,4,Right and left,Beach-break,All surfers,2,4,1,3,São Paulo,0.7314248874,0.6974767095,0.6063466573,0.7643475666,Sudeste,2872.28284836,0.39157828239,0.0025787169,0.5565885593,0.5591672762,0.3531386351
525,524,Sudeste,Sao Paulo North,Jureia,-23.7662,-45.790182,3.5,4,Right and left,Beach-break,All surfers,2,4,1,3.5,São Paulo,0.6883869419,0.6139055973,0.6011857482,0.7092469812,Sudeste,496.358249664,0.396242026112,4.456272e-4,0.5632175949,0.5636632221,0.3559780219
38,37,Sudeste,NA,Barra do Una,-23.763818,-45.76278,NA,NA,NA,NA,NA,1,1,1,1,São Paulo,0.5585931895,0.4888220189,0.4074064509,0.5384939265,Sudeste,2872.28284836,0.416183601574,0.0025787169,0.591562509,0.5941412259,0.3752262167
526,525,Sudeste,Sao Paulo North,Barra do Una - Meio,-23.762623,-45.768425,3,4,Right and left,Beach-break,All surfers,2,4,1,3,São Paulo,0.7210101212,0.6536640194,0.5819802658,0.7433605232,Sudeste,2872.28284836,0.412230503779,0.0025787169,0.585943584,0.5885223009,0.3716776194
39,38,Sudeste,NA,Praia da Boracéia,-23.758373,-45.828777,NA,NA,NA,NA,NA,1,1,1,1,São Paulo,0.5162129552,0.3689446906,0.3346530924,0.4637315331,Sudeste,84726.7590828,0.42087571865,0.0760671356,0.5982318745,0.6742990101,0.4258493696
357,356,Sudeste,Sao Paulo North,Massaguaçu,-23.590773,-45.334611,3.5,2,Right and left,Beach-break,Experienced surfers,2,2,0,3.5,São Paulo,0.5717579663,0.5021795271,0.3465679677,0.6091600847,Sudeste,0,0.277201875184,0,0.394014171,0.394014171,0.2488372129
358,357,Sudeste,Sao Paulo North,Simão,-23.585149,-45.238287,3.5,3,Right,Beach-break,Experienced surfers,1,3,0,3.5,São Paulo,0.45393188290000003,0.4171735626,0.3967700051,0.4536896991,Sudeste,0,0.297866683267,0,0.4233870864,0.4233870864,0.267387496
359,358,Sudeste,Sao Paulo North,Praia do sape,-23.531963,-45.222301,3.5,3,Right and left,Beach-break,All surfers,2,3,1,3.5,São Paulo,0.7316793569,0.6424876097,0.5205647486,0.7823370306,Sudeste,0,0.347475055708,0,0.4939003242,0.4939003242,0.3119196952
360,359,Sudeste,Sao Paulo North,Lagoinha,-23.521339,-45.205221,3.5,2,Right and left,Beach-break,Beginners wave,2,2,0,3.5,São Paulo,0.6547287762,0.5992762797,0.4362928495,0.6816868932,Sudeste,0,0.358670220409,0,0.5098131081,0.5098131081,0.3219693155
361,360,Sudeste,Sao Paulo North,Sununga,-23.511344,-45.129433,3.5,3,Right,Beach-break,Pros or kamikaze only...,1,3,0,3.5,São Paulo,0.5292591373,0.4460165549,0.4320480126,0.5276000963,Sudeste,0,0.350873108575,0,0.4987303095,0.4987303095,0.3149700426
40,39,Sudeste,NA,Praia Dura,-23.496058,-45.171014,NA,NA,NA,NA,NA,1,1,1,1,São Paulo,0.5775265316,0.5038323089,0.398012536,0.5864403588,Sudeste,0,0.355005483967,0,0.5046040594,0.5046040594,0.318679573
527,526,Sudeste,Sao Paulo North,Enseada - Ubatuba,-23.494012,-45.090815,3,2,Right,Beach-break,All surfers,1,2,1,3,São Paulo,0.7459155382,0.5487242991,0.3495672164,0.7967424576,Sudeste,0,0.356357212172,0,0.506525403,0.506525403,0.3198929857
362,361,Sudeste,Sao Paulo North,Toninhas,-23.484739,-45.073771,3,2,Right and left,Beach-break,All surfers,2,2,1,3,São Paulo,0.8229674744,0.5812473892,0.5142018134,0.8917529316,Sudeste,0,0.360146350671,0,0.5119112766,0.5119112766,0.3232944008
363,362,Sudeste,Sao Paulo North,Praia Grande (PG),-23.478835,-45.067291,3,3,Right and left,Beach-break,All surfers,2,3,1,3,São Paulo,0.8230010458,0.8069800946,0.5243358988,0.8923101582,Sudeste,0,0.35880762483899997,0,0.5100084145,0.5100084145,0.32209266
364,363,Sudeste,Sao Paulo North,Praia Grande North,-23.467498,-45.062056,3,3,Left,Beach-break,All surfers,1,3,1,3,São Paulo,0.7649544086,0.7685868008,0.4098309064,0.8167864496,Sudeste,0,0.366212190213,0,0.5205332484,0.5205332484,0.3287395538
365,364,Sudeste,Sao Paulo North,Vermelha do Centro,-23.463128,-45.049353,3.5,4,Right and left,Beach-break,All surfers,2,4,1,3.5,São Paulo,0.8583154466,0.8378572427,0.5971790956,0.9307342249,Sudeste,0,0.373851299226,0,0.5313914621,0.5313914621,0.3355969915
366,365,Sudeste,Sao Paulo North,Patiero,-23.456318,-45.021243,3.5,2,NA,Reef-rocky,Experienced surfers,1,2,0,3.5,São Paulo,0.6794370012,0.4133557578,0.4326148007,0.7025901808,Sudeste,0,0.38473637908,0,0.5468634921,0.5468634921,0.3453682564
41,40,Sudeste,NA,Pereque-Acu,-23.424565,-45.062697,NA,NA,NA,NA,NA,1,1,1,1,São Paulo,0.783578208,0.6859244468,0.3018313893,0.8302610799,Sudeste,0,0.391787192104,0,0.5568855031,0.5568855031,0.3516975954
367,366,Sudeste,Sao Paulo North,Vermelha do Norte,-23.416982,-45.035877,3,3,Right and left,Beach-break,All surfers,2,3,1,3,São Paulo,0.9173157312,0.6515253408,0.6228035974,0.9971859184,Sudeste,0,0.393122693104,0,0.5587837815,0.5587837815,0.3528964414
42,41,Sudeste,NA,Itamambuca,-23.406683,-45.008741,NA,NA,NA,NA,NA,1,1,1,1,São Paulo,0.7401168384,0.5286240126,0.4402760582,0.7721848726,Sudeste,0,0.40130481687,0,0.5704138352,0.5704138352,0.3602413299
368,367,Sudeste,Sao Paulo North,Itamambuca,-23.402332,-45.001459,3.5,4,Right and left,Beach-break,All surfers,2,4,1,3.5,São Paulo,0.920734971,0.7109038411,0.6215040446,1,Sudeste,0,0.396934125003,0,0.5642013429,0.5642013429,0.3563178688
369,368,Sudeste,Sao Paulo North,Praia do Felix,-23.389334,-44.972405,3.5,3,Right and left,Beach-break,All surfers,2,3,1,3.5,São Paulo,0.7651393992,0.7210582128,0.6506055532,0.8072824664,Sudeste,0,0.391509949201,0,0.5564914306,0.5564914306,0.3514487214
370,369,Sudeste,Sao Paulo North,Brava do Camburi,-23.370963,-44.799859,3,3,Right and left,Beach-break,Experienced surfers,2,3,0,3,São Paulo,0.6982011846,0.6869686354,0.7053192307,0.7448647565,Sudeste,28.3867435455,0.335914016333,2.54854e-5,0.4774674868,0.4774929722,0.3015577335
43,42,Sudeste,NA,Praia da Fazenda,-23.361352,-44.859766,NA,NA,NA,NA,NA,1,1,1,1,São Paulo,0.6221674986,0.5818941373,0.5234653592,0.6317250934,Sudeste,0,0.3825638432,0,0.5437754541,0.5437754541,0.3434180251
371,370,Sudeste,Rio De Janeiro City,Ponta do Cepílio,-23.34399,-44.711781,3.5,3,Right and left,Beach-break,Experienced surfers,2,3,0,3.5,Rio de Janeiro,0.6746451947,0.6318726441,0.58052661,0.743423075,Sudeste,51050.4846001,0.230798831377,0.0458327944,0.3280569807,0.3738897751,0.2361277751
372,371,Sudeste,Rio De Janeiro City,Laranjeiras,-23.33605,-44.674294,3.5,3,Right,Beach-break,All surfers,1,3,1,3.5,Rio de Janeiro,0.6721844396,0.6413573913,0.5951254776,0.7372735752,Sudeste,55087.6073112,0.236222694687,0.0494572971,0.3357664488,0.3852237459,0.2432856743
373,372,Sudeste,Rio De Janeiro City,Martim de Sa,-23.304049,-44.553487,3.5,3,Right and left,Beach-break,All surfers,2,3,1,3.5,Rio de Janeiro,0.6921299286,0.7247389592,0.8333984031,0.7786248013,Sudeste,15352.8407364,0.218758254093,0.013783681,0.3109425291,0.3247262101,0.2050788297
528,527,Sudeste,Rio De Janeiro City,Presídio,-23.18531,-44.188924,3.5,3,Right and left,Beach-break,All surfers,2,3,1,3.5,Rio de Janeiro,0.6931118813,0.7033832566,0.7004153586,0.7560663995,Sudeste,0,0.290267705254,0,0.4125859148,0.4125859148,0.2605660829
44,43,Sudeste,NA,Aventureiro,-23.184406,-44.315804,NA,NA,NA,NA,NA,1,1,1,1,Rio de Janeiro,0.409351994,0.5355670178,0.5359854967,0.4368345224,Sudeste,0,0.196633328897,0,0.2794942063,0.2794942063,0.1765128375
374,373,Sudeste,Rio De Janeiro Norte,Aventureiro,-23.180132,-44.304428,3.5,4,Left,Point-break,All surfers,1,4,1,3.5,Rio de Janeiro,0.5412864052,0.6666840403,0.6753486177,0.6020071269,Sudeste,0,0.196655935622,0,0.2795263394,0.2795263394,0.1765331309
45,44,Sudeste,NA,Praia do Leste,-23.179746,-44.274094,NA,NA,NA,NA,NA,1,1,1,1,Rio de Janeiro,0.510460632,0.6254160399,0.5747574537,0.5570013247,Sudeste,0,0.213317583082,0,0.3032091706,0.3032091706,0.1914898765
46,45,Sudeste,NA,Praia do Sul,-23.178656,-44.296757,NA,NA,NA,NA,NA,1,1,1,1,Rio de Janeiro,0.4551940373,0.6006847766,0.5901758636,0.4942437305,Sudeste,0,0.196593907912,0,0.2794381734,0.2794381734,0.1764774502
375,374,Sudeste,Rio De Janeiro City,Lopes Mendes,-23.171453,-44.12899,3.5,4,Right and left,Beach-break,Experienced surfers,2,4,0,3.5,Rio de Janeiro,0.5138098095,0.5782887678,0.5865138063,0.5286986085,Sudeste,0,0.297757526708,0,0.4232319315,0.4232319315,0.2672895089
47,46,Sudeste,NA,Praia do Meio,-23.066913,-43.549809,NA,NA,NA,NA,NA,1,1,1,1,Rio de Janeiro,0.6154512362,0.5153640973,0.4486124955,0.4838382674,Sudeste,581314.900328,0.377820913336,0.5219007525,0.5370338634,1.0589346159,0.6687636077
376,375,Sudeste,Rio De Janeiro City,Barra de Guaratiba,-23.064018,-43.569374,4,2,Left,Rivermouth,Experienced surfers,1,2,0,4,Rio de Janeiro,0.645299329,0.6095497317,0.4503582283,0.5039386034,Sudeste,634998.833763,0.388786769108,0.5700978403,0.5526207081,1.1227185484,0.7090459558
48,47,Sudeste,NA,Restinga a Marambaia,-23.061833,-43.591673,NA,NA,NA,NA,NA,1,1,1,1,Rio de Janeiro,0.615172943,0.5885691474,0.2948960843,0.448746623,Sudeste,668109.196365,0.413278924099,0.5998241094,0.5874338064,1.1872579158,0.7498053941
529,528,Sudeste,Rio De Janeiro City,Inferno,-23.059582,-43.545651,3.5,3,Left,Beach-break,Experienced surfers,1,3,0,3.5,Rio de Janeiro,0.6602815936,0.5676846611,0.5299156739,0.5384591047,Sudeste,585565.820509,0.379050721213,0.5257172011,0.5387819098,1.0644991109,0.6722778301
377,376,Sudeste,Rio De Janeiro City,Laje do Dramin,-23.055999,-44.366816,3.5,2,Left,Reef-rocky,Pros or kamikaze only...,1,2,0,3.5,Rio de Janeiro,0.4533519854,0.5007743876,0.5268254533,0.4444136431,Sudeste,28.6411380768,0.320065685225,2.57138e-5,0.4549407018,0.4549664156,0.287331226
49,48,Sudeste,NA,Grumari,-23.050469,-43.533908,NA,NA,NA,NA,NA,1,1,1,1,Rio de Janeiro,0.6464226868,0.6133181543,0.4637888025,0.5272841938,Sudeste,567242.974289,0.374574715915,0.5092670685,0.5324197251,1.0416867936,0.6578708522
378,377,Sudeste,Rio De Janeiro City,Grumari,-23.049131,-43.526673,3.5,3,Right and left,Beach-break,Experienced surfers,2,3,0,3.5,Rio de Janeiro,0.7503634314,0.6474923069,0.5462631222,0.6642431698,Sudeste,536566.968287,0.376214263619,0.481726349,0.5347501748,1.0164765238,0.6419494622
379,378,Sudeste,Rio De Janeiro City,Prainha,-23.040759,-43.505259,3.5,4,Right and left,Beach-break,All surfers,2,4,1,3.5,Rio de Janeiro,0.8116337362,0.6267768775,0.7723400285,0.7748637053,Sudeste,423706.994072,0.359384163062,0.3804013951,0.5108279048,0.8912292999,0.5628503525
530,529,Sudeste,Rio De Janeiro City,Macumba-secreto,-23.037946,-43.495793,3,NA,Right and left,NA,All surfers,2,1,1,3,Rio de Janeiro,0.7572616754,0.5895979042,0.5111103164,0.7306052954,Sudeste,328337.808395,0.357738630392,0.2947795578,0.508488948,0.8032685058,0.507299257
380,379,Sudeste,Rio De Janeiro City,CcB,-23.034577,-43.488738,3.5,4,Right and left,Sand-bar,All surfers,2,4,1,3.5,Rio de Janeiro,0.8062992098,0.5921639237,0.3960764109,0.8126633369,Sudeste,257556.324116,0.348753015841,0.2312323997,0.4957168141,0.7269492138,0.4591002802
381,380,Sudeste,Rio De Janeiro City,Macumba (Curvão),-23.034085,-43.472729,3,3,Right and left,Beach-break,All surfers,2,3,1,3,Rio de Janeiro,0.7170524097,0.541266767,0.5234324883,0.750386895,Sudeste,99202.281189,0.320252382938,0.0890631655,0.4552060736,0.5442692391,0.3437298719
382,381,Sudeste,Rio De Janeiro City,Farorinha,-23.033829,-43.470989,3,2,Left,Beach-break,All surfers,1,2,1,3,Rio de Janeiro,0.6316637446,0.4589315095,0.4450060038,0.6439241123,Sudeste,82272.8855133,0.329793147786,0.0738640638,0.468767297,0.5426313608,0.34269548
383,382,Sudeste,Rio De Janeiro City,Canto do recreio,-23.033295,-43.46743,3.5,NA,Right and left,Beach-break,All surfers,2,1,1,3.5,Rio de Janeiro,0.7127323252,0.5583604486,0.5617209643,0.7528269255,Sudeste,45264.9584522,0.33392580431,0.0406385865,0.4746414464,0.5152800329,0.325421918
384,383,Sudeste,Rio De Janeiro City,Praia da Macumba,-23.032031,-43.475604,4,4,Right and left,Beach-break,All surfers,2,4,1,4,Rio de Janeiro,0.7694739204,0.5867564651,0.5243748318,0.8090492896,Sudeste,127872.835316,0.320252382938,0.1148034034,0.4552060736,0.570009477,0.35998596
385,384,Sudeste,Rio De Janeiro City,posto 11 (Atlântico sul),-23.03,-43.466443,3.5,3,Right and left,Sand-bar,All surfers,2,3,1,3.5,Rio de Janeiro,0.7173241924,0.5496816365,0.537281643,0.7590887667,Sudeste,43155.1461658,0.33392580431,0.0387444107,0.4746414464,0.5133858571,0.324225663
386,385,Sudeste,Rio De Janeiro City,Mambucaba,-23.029266,-44.519992,3.5,2,Right and left,Sand-bar,All surfers,2,2,1,3.5,Rio de Janeiro,0.7286269091,0.6485072138,0.7350954305,0.8103538996,Sudeste,53.3162956238,0.264709552153,4.7867e-5,0.376257609,0.376305476,0.2376533961
387,386,Sudeste,Rio De Janeiro City,Posto 10 - Recreio,-23.026218,-43.45804,3.5,2,Right and left,Beach-break,Experienced surfers,2,2,0,3.5,Rio de Janeiro,0.6331403294,0.4221264597,0.3102454949,0.6595058806,Sudeste,1285.13149452,0.345262021068,0.0011537827,0.4907547214,0.4919085041,0.3106617736
388,387,Sudeste,Rio De Janeiro City,Recreio Posto 9,-23.023639,-43.448229,3,3,Right and left,Beach-break,Experienced surfers,2,3,0,3,Rio de Janeiro,0.7610770352,0.4399181875,0.409303513,0.8145471782,Sudeste,0,0.359416683761,0,0.5108741296,0.5108741296,0.322639397
50,49,Sudeste,NA,Reserva,-23.022717,-43.440916,NA,NA,NA,NA,NA,1,1,1,1,Rio de Janeiro,0.6611679817,0.3664803731,0.367321404,0.684330763,Sudeste,0,0.372748763896,0,0.5298243207,0.5298243207,0.334607273
51,50,Sudeste,NA,Barra da Tijuca,-23.02034012,-43.37247849,NA,NA,NA,NA,NA,1,1,1,1,Rio de Janeiro,0.5332385248,0.5581264186,0.3342229403,0.5027904749,Sudeste,0,0.428286562263,0,0.6087656322,0.6087656322,0.3844621701
389,388,Sudeste,Rio De Janeiro City,Lage Postinho,-23.015482,-43.306539,3.5,2,Right and left,Reef-rocky,Experienced surfers,2,2,0,3.5,Rio de Janeiro,0.6044482679,0.3549977332,0.3416429294,0.645042584,Sudeste,0,0.290312815795,0,0.4126500349,0.4126500349,0.2606065775
390,389,Sudeste,Rio De Janeiro City,Joatinga,-23.015205,-43.29109,3.5,4,Right and left,Beach-break,All surfers,2,4,1,3.5,Rio de Janeiro,0.6768353084,0.4511440183,0.3121417261,0.752960362,Sudeste,0,0.245386304378,0,0.3487915846,0.3487915846,0.2202771681
52,51,Sudeste,NA,Barra da Tijuca,-23.01488611,-43.37222222,NA,NA,NA,NA,NA,1,1,1,1,Rio de Janeiro,0.5324513586,0.5836139624,0.3249206628,0.50534126,Sudeste,0,0.419097514067,0,0.5957043382,0.5957043382,0.3762133907
391,390,Sudeste,Rio De Janeiro City,Tropical (posto 1),-23.014825,-43.301845,3.5,4,Right and left,Beach-break,Experienced surfers,2,4,0,3.5,Rio de Janeiro,0.6032232038,0.3579973104,0.2563189543,0.6507520146,Sudeste,0,0.271491475142,0,0.3858974203,0.3858974203,0.2437111292
531,530,Sudeste,Rio De Janeiro City,Posto 4,-23.012323,-43.327707,3.5,4,Right and left,Beach-break,All surfers,2,4,1,3.5,Rio de Janeiro,0.707538102,0.4417353154,0.4002230971,0.7605013716,Sudeste,0,0.325676164224,0,0.462915425,0.462915425,0.2923513738
532,531,Sudeste,Rio De Janeiro City,Vala do Mauri,-23.0108661,-43.350477,3.5,3,Right,Beach-break,All surfers,1,3,1,3.5,Rio de Janeiro,0.607218845,0.6317000238,0.3553758153,0.6156335224,Sudeste,0,0.375745224038,0,0.5340834829,0.5340834829,0.3372971206
392,391,Sudeste,Rio De Janeiro City,Barra da Tijuca - Posto 8,-23.010857,-43.361874,3.5,4,Right and left,Sand-bar,All surfers,2,4,1,3.5,Rio de Janeiro,0.7051153007,0.7016335094,0.4447299329,0.7312759892,Sudeste,0,0.39373572826,0,0.5596551484,0.5596551484,0.3534467478
533,532,Sudeste,Rio De Janeiro City,Praia Brava de Angra dos Reis,-23.007446,-44.480341,3,3,Right and left,Beach-break,All surfers,2,3,1,3,Rio de Janeiro,0.7569989801,0.6741945299,0.55905861590000006,0.8299838441,Sudeste,5740.6583252,0.30241173804,0.0051539259,0.4298474179,0.4350013438,0.2747224084
53,52,Sudeste,NA,Sao Conrado,-23.000618,-43.264187,NA,NA,NA,NA,NA,1,1,1,1,Rio de Janeiro,0.3582043932,0.276042425,0.1390154043,0.3814420476,Sudeste,0,0.174171796426,0,0.2475674306,0.2475674306,0.1563496797
393,392,Sudeste,Rio De Janeiro City,Sao Conrado,-22.9998,-43.254354,3.5,NA,Right and left,Beach-break,Experienced surfers,2,1,0,3.5,Rio de Janeiro,0.4534086673,0.3560377005,0.2439523283,0.5034557997,Sudeste,0,0.166848186844,0,0.2371576671,0.2371576671,0.149775458
394,393,Sudeste,Rio De Janeiro City,Laje do sheraton,-22.995671,-43.231244,4,1,Right and left,Reef-rocky,Pros or kamikaze only...,2,1,0,4,Rio de Janeiro,0.4531218378,0.3954445492,0.3041392184,0.5057803695,Sudeste,0,0.159874694522,0,0.2272455595,0.2272455595,0.1435155277
534,533,Sudeste,Rio De Janeiro City,Castelinho,-22.991389,-43.195435,3.5,2,Right and left,Point-break,Experienced surfers,2,2,0,3.5,Rio de Janeiro,0.6240136985,0.35120598200000003,0.2844873151,0.7089841621,Sudeste,0,0.187813750959,0,0.2669580765,0.2669580765,0.1685957222
395,394,Sudeste,Rio De Janeiro City,Pontão do leblon,-22.989963,-43.22648,3.5,3,Right,Point-break,Experienced surfers,1,3,0,3.5,Rio de Janeiro,0.3650726776,0.3311463605,0.1074163793,0.3961522743,Sudeste,0,0.158292043907,0,0.2249959832,0.2249959832,0.1420948217
396,395,Sudeste,Rio De Janeiro City,Arpoador,-22.989913,-43.191655,3.5,NA,Right and left,Beach-break,All surfers,2,1,1,3.5,Rio de Janeiro,0.708252543,0.4330982062,0.4263458369,0.8164947324,Sudeste,0,0.182502696708,0,0.259408955,0.259408955,0.1638281212
397,396,Sudeste,Rio De Janeiro City,Praia do Diabo,-22.988817,-43.189144,3.5,4,Right and left,Beach-break,All surfers,2,4,1,3.5,Rio de Janeiro,0.7035846259,0.4310770006,0.4704129626,0.8116621973,Sudeste,0,0.179873873253,0,0.2556723508,0.2556723508,0.1614682919
398,397,Sudeste,Rio De Janeiro City,Leblon,-22.987948,-43.219528,3,4,Right and left,Beach-break,All surfers,2,4,1,3,Rio de Janeiro,0.6695703365,0.436889151,0.1656096288,0.7779170445,Sudeste,0,0.156901761564,0,0.2230198388,0.2230198388,0.1408467999
399,398,Sudeste,Rio De Janeiro City,Ipanema,-22.987553,-43.205409,3,3,Right and left,Beach-break,All surfers,2,3,1,3,Rio de Janeiro,0.6923651079,0.4064332177,0.1415822473,0.7959314157,Sudeste,0,0.184249702175,0,0.2618921449,0.2618921449,0.1653963644
400,399,Sudeste,Rio De Janeiro City,Shore break expresso escorpiao,-22.986037,-43.182017,3.5,2,Right,Reef-rocky,Pros or kamikaze only...,1,2,0,3.5,Rio de Janeiro,0.5481091303,0.2820219127,0.3030297355,0.620918625,Sudeste,0,0.169711036531,0,0.2412269157,0.2412269157,0.1523453667
401,400,Sudeste,Rio De Janeiro City,Forte de Copacabana,-22.985103,-43.185539,3,2,Right,Point-break,All surfers,1,2,1,3,Rio de Janeiro,0.6085141056,0.3346969023,0.3349813243,0.6945983042,Sudeste,0,0.1747705021,0,0.2484184296,0.2484184296,0.1568871229
402,401,Sudeste,Rio De Janeiro City,Posto 5 - Copacabana,-22.983918,-43.188457,3.5,3,Right and left,Beach-break,Experienced surfers,2,3,0,3.5,Rio de Janeiro,0.6168777067,0.3614398314,0.2961689014,0.704128437,Sudeste,0,0.177215827373,0,0.2518942098,0.2518942098,0.1590822304
403,402,Sudeste,Rio De Janeiro Norte,Praia Brava - Pontal do Atalaia,-22.98297,-42.021675,3.5,2,Left,Point-break,Experienced surfers,1,2,0,3.5,Rio de Janeiro,0.4814441646,0.3794198219,0.3345916474,0.4797356747,Sudeste,0,0.319692064153,0,0.4544096376,0.4544096376,0.2869795963
404,403,Sudeste,Rio De Janeiro City,Shock,-22.975816,-43.040493,5,2,Right,Reef-rocky,Pros or kamikaze only...,1,2,0,5,Rio de Janeiro,0.4583941259,0.4661069666,0.4714313493,0.5052220859,Sudeste,0,0.178477657495,0,0.25368777260000003,0.25368777260000003,0.1602149439
405,404,Sudeste,Rio De Janeiro Norte,Praia Grande - Arraial do Cabo,-22.975325,-42.033842,3.5,3,Right and left,Beach-break,All surfers,2,3,1,3.5,Rio de Janeiro,0.6420313081,0.5216189094,0.4237153019,0.6825958595,Sudeste,0,0.314999763188,0,0.4477400107,0.4477400107,0.2827674347
54,53,Sudeste,NA,Bambui,-22.975255,-42.91657,NA,NA,NA,NA,NA,1,1,1,1,Rio de Janeiro,0.2198053851,0.240051138,0.1533923771,0.2464170677,Sudeste,0,0.0747799274577,0,0.1062920339,0.1062920339,0.0671280766
406,405,Sudeste,Rio De Janeiro City,Itacoatiara,-22.972618,-43.033447,3.5,3,Right and left,Beach-break,Experienced surfers,2,3,0,3.5,Rio de Janeiro,0.4641686116,0.4936816496,0.4953120684,0.5129837201,Sudeste,0,0.177095256333,0,0.2517228304,0.2517228304,0.1589739968
55,54,Sudeste,NA,Itaipuacu,-22.971149,-43.01126,NA,NA,NA,NA,NA,1,1,1,1,Rio de Janeiro,0.3764125446,0.3447114769,0.3381996266,0.4015263702,Sudeste,0,0.181219408044,0,0.2575848911,0.2575848911,0.1626761449
407,406,Sudeste,Rio De Janeiro City,Canal de Camboinhas,-22.968074,-43.048167,2,3,Right and left,breakwater/jetty,Beginners wave,2,3,0,2,Rio de Janeiro,0.4198412325,0.4324160257,0.4034830889,0.4605272979,Sudeste,0,0.169192590987,0,0.2404899983,0.2404899983,0.1518799711
408,407,Sudeste,Rio De Janeiro City,Camboinhas,-22.966612,-43.052588,3.5,2,Right and left,Sand-bar,Experienced surfers,2,2,0,3.5,Rio de Janeiro,0.4774842948,0.4865269678,0.4898935212,0.5327843771,Sudeste,0,0.168963358323,0,0.2401641674,0.2401641674,0.1516741946
409,408,Sudeste,Rio De Janeiro City,Leme,-22.963639,-43.166667,3,3,Left,Sand-bar,All surfers,1,3,1,3,Rio de Janeiro,0.5757642381,0.410881835,0.3219969919,0.6618502021,Sudeste,0,0.153321101168,0,0.2179302955,0.2179302955,0.1376325303
56,55,Sudeste,NA,Barra de Marica,-22.9621,-42.809487,NA,NA,NA,NA,NA,1,1,1,1,Rio de Janeiro,0.4700908538,0.3217588665,0.3369385699,0.4259341755,Sudeste,0,0.422558707918,0,0.6006240719,0.6006240719,0.379320418
57,56,Sudeste,NA,Camboinhas,-22.961998,-43.059923,NA,NA,NA,NA,NA,1,1,1,1,Rio de Janeiro,0.3565359588,0.3866860389,0.2748573368,0.38240931,Sudeste,0,0.166230484485,0,0.2362796662,0.2362796662,0.1492209619
535,534,Sudeste,Rio De Janeiro City,Sossego,-22.958317,-43.070285,NA,2,Right,Beach-break,NA,1,2,1,1,Rio de Janeiro,0.3638951599,0.3934709229,0.3280870543,0.3949527391,Sudeste,0,0.15757821007,0,0.2239813413,0.2239813413,0.1414540309
410,409,Sudeste,Rio De Janeiro Norte,Ponta Negra - Maricá - RJ,-22.957751,-42.696787,3,3,Right and left,Beach-break,All surfers,2,3,1,3,Rio de Janeiro,0.4831727671,0.4892935106,0.3050955369,0.5096627453,Sudeste,0,0.247550746797,0,0.3518681186,0.3518681186,0.2222201342
58,57,Sudeste,NA,Pirantininga,-22.955045,-43.088654,NA,NA,NA,NA,NA,1,1,1,1,Rio de Janeiro,0.368778334,0.355672018,0.2345726219,0.3976205708,Sudeste,0,0.166532270391,0,0.2367086241,0.2367086241,0.1494918676
411,410,Sudeste,Rio De Janeiro City,Piratininga,-22.954699,-43.095675,3,3,Right and left,Beach-break,All surfers,2,3,1,3,Rio de Janeiro,0.6815018447,0.4889620558,0.4370142199,0.7899582894,Sudeste,0,0.164429437239,0,0.2337196614,0.2337196614,0.1476042067
412,411,Sudeste,Rio De Janeiro Norte,Massambaba,-22.94717,-42.166815,3.5,4,Right and left,Sand-bar,Experienced surfers,2,4,0,3.5,Rio de Janeiro,0.3691908067,0.3985064231,0.3423384381,0.3296724721,Sudeste,131.735664368,0.344352878503,1.182714e-4,0.489462468,0.4895807394,0.3091916882
59,58,Sudeste,NA,Jacone,-22.946556,-42.679789,NA,NA,NA,NA,NA,1,1,1,1,Rio de Janeiro,0.3413287771,0.3487382549,0.1345198438,0.3238373211,Sudeste,0,0.268955407589,0,0.3822926591,0.3822926591,0.2414345646
60,59,Sudeste,NA,Figueira,-22.944992,-42.188828,NA,NA,NA,NA,NA,1,1,1,1,Rio de Janeiro,0.2686899326,0.3094274968,0.3381233859,0.2093561301,Sudeste,131.735664368,0.330034431766,1.182714e-4,0.4691102575,0.4692285289,0.2963383755
61,60,Sudeste,NA,Praia do Fora,-22.944794,-43.155304,NA,NA,NA,NA,NA,1,1,1,1,Rio de Janeiro,0.471127765,0.4856035431,0.345420867,0.5369743093,Sudeste,0,0.137396270089,0,0.1952947736,0.1952947736,0.1233372065
413,412,Sudeste,Rio De Janeiro Norte,Lage de fora,-22.944345,-42.468188,4,2,Left,Reef-rocky,Don't know,1,2,1,4,Rio de Janeiro,0.5585617918,0.4458318838,0.4289404503,0.6316775241,Sudeste,0,0.175759750143,0,0.2498245447,0.2498245447,0.1577751462
414,413,Sudeste,Rio De Janeiro Norte,Arraial do Cabo,-22.942665,-42.030054,3.5,2,Left,Reef-coral,Experienced surfers,1,2,0,3.5,Rio de Janeiro,0.4852994686,0.3553456432,0.4682587357,0.4987381413,Sudeste,0,0.282856908559,0,0.4020522238,0.4020522238,0.2539135954
415,414,Sudeste,Rio De Janeiro Norte,Itauna,-22.938836,-42.476208,4,4,Right and left,Point-break,All surfers,2,4,1,4,Rio de Janeiro,0.6513524281,0.745335316,0.4688137621,0.7437713353,Sudeste,0,0.186360670247,0,0.2648926706,0.2648926706,0.1672913279
416,415,Sudeste,Rio De Janeiro Norte,Backdoor,-22.938421,-42.472313,3,3,Right,Reef-rocky,Experienced surfers,1,3,0,3,Rio de Janeiro,0.4479254041,0.5543255583,0.2840807787,0.4890815932,Sudeste,0,0.186360670247,0,0.2648926706,0.2648926706,0.1672913279
62,61,Sudeste,NA,Laje do Pao de Acucar,-22.938409,-43.151797,NA,NA,NA,NA,NA,1,1,1,1,Rio de Janeiro,0.4423266391,0.5025928171,0.3343616285,0.4988398358,Sudeste,0,0.142789653975,0,0.2029609183,0.2029609183,0.1281787127
417,416,Sudeste,Rio De Janeiro Norte,Saquarema - Itauna Beach,-22.938318,-42.47999,3.5,4,Right and left,Beach-break,All surfers,2,4,1,3.5,Rio de Janeiro,0.6330463447,0.7218415657,0.4748537179,0.7156951276,Sudeste,0,0.199761228813,0,0.2839401967,0.2839401967,0.1793206752
63,62,Sudeste,NA,Canal,-22.937419,-42.487813,NA,NA,NA,NA,NA,1,1,1,1,Rio de Janeiro,0.4489862345,0.5338021222,0.2455853045,0.4796730413,Sudeste,0,0.214259811569,0,0.3045484522,0.3045484522,0.1923356915
418,417,Sudeste,Rio De Janeiro Norte,Saquarema - Praia da Vila,-22.936169,-42.495224,3.5,3,Right and left,Beach-break,All surfers,2,3,1,3.5,Rio de Janeiro,0.6394836635,0.7037921588,0.400250658,0.7124708115,Sudeste,0,0.229082010618,0,0.3256166952,0.3256166952,0.2056412101
64,63,Sudeste,NA,Praia Seca,-22.936126,-42.361598,NA,NA,NA,NA,NA,1,1,1,1,Rio de Janeiro,0.2983968914,0.3730125215,0.4163186434,0.2181352484,Sudeste,31.9377346039,0.403930385676,2.86735e-5,0.5741458133,0.5741744868,0.3626163462
419,418,Sudeste,Rio De Janeiro Norte,Praia do Foguete - Cabo Frio,-22.929736,-42.037752,3,3,Right and left,Sand-bar,NA,2,3,1,3,Rio de Janeiro,0.6242498978,0.6989175767,0.529951026,0.6719502901,Sudeste,0,0.284814031676,0,0.4048340745,0.4048340745,0.2556704561
420,419,Sudeste,Rio De Janeiro City,Flamengo,-22.928832,-43.170261000000004,3.5,1,Left,Point-break,Experienced surfers,1,1,0,3.5,Rio de Janeiro,0.4197902123,0.4114498669,0.1958898895,0.4541568986,Sudeste,0,0.185579976594,0,0.2637829942,0.2637829942,0.1665905186
421,420,Sudeste,Rio De Janeiro City,prainha de adão e eva,-22.927765,-43.123312,3.5,1,Right and left,Beach-break,All surfers,2,1,1,3.5,Rio de Janeiro,0.6170469201,0.4250571372,0.5068900697,0.71192307,Sudeste,0,0.157512112247,0,0.22388739,0.22388739,0.1413946965
422,421,Sudeste,Rio De Janeiro City,Itapuca,-22.906618,-43.119707,3.5,2,Right and left,Reef-rocky,All surfers,2,2,1,3.5,Rio de Janeiro,0.5743862504,0.2252256572,0.3548849572,0.6481977082,Sudeste,0,0.184313872032,0,0.2619833558,0.2619833558,0.1654539681
423,422,Sudeste,Rio De Janeiro Norte,Praia Brava - Cabo Frio,-22.884557,-41.998072,3.5,2,Right and left,Beach-break,All surfers,2,2,1,3.5,Rio de Janeiro,0.5366571076,0.4694775099,0.6005715344,0.5808150662,Sudeste,0,0.236662687935,0,0.3363918543,0.3363918543,0.2124461952
424,423,Sudeste,Rio De Janeiro Norte,Praia do Forte - Cabo Frio,-22.884167,-42.013056,3.5,4,Right and left,Beach-break,All surfers,2,4,1,3.5,Rio de Janeiro,0.6661554636,0.4298125449,0.3512014789,0.7516683854,Sudeste,0,0.213998868288,0,0.304177548,0.304177548,0.1921014493
425,424,Sudeste,Rio De Janeiro Norte,Dunas do Peró - Cabo Frio -RJ,-22.842631,-41.981335,NA,NA,NA,NA,NA,1,1,1,1,Rio de Janeiro,0.3371051378,0.3616611299,0.4100720329,0.3502234356,Sudeste,0,0.186650842898,0,0.2653051214,0.2653051214,0.1675518086
65,64,Sudeste,NA,Caravelas,-22.81485,-41.953902,NA,NA,NA,NA,NA,1,1,1,1,Rio de Janeiro,0.3968689453,0.3908964055,0.5001526119,0.4157617905,Sudeste,0,0.210779491165,0,0.299601532,0.299601532,0.1892114946
66,65,Sudeste,NA,Tucuns,-22.799864,-41.929282,NA,NA,NA,NA,NA,1,1,1,1,Rio de Janeiro,0.4309780159,0.3608666647,0.3983498419,0.4497259688,Sudeste,0,0.23349081922,0,0.3318833667,0.3318833667,0.2095988877
426,425,Sudeste,Rio De Janeiro Norte,Geriba,-22.77907,-41.910524,3.5,3,Right and left,Beach-break,All surfers,2,3,1,3.5,Rio de Janeiro,0.5448217914,0.5861827705,0.4069189218,0.5928457841,Sudeste,0,0.23196315182900001,0,0.3297119434,0.3297119434,0.2082275387
67,66,Sudeste,NA,Praia Brava,-22.754252,-41.872609,NA,NA,NA,NA,NA,1,1,1,1,Rio de Janeiro,0.3155054166,0.3538666388,0.2847458464,0.3056617309,Sudeste,0,0.23217351818,0,0.3300109577,0.3300109577,0.2084163794
427,426,Sudeste,Rio De Janeiro Norte,Laje da Rasa,-22.726395,-41.971464,3,1,NA,Reef-rocky,Experienced surfers,1,1,0,3,Rio de Janeiro,0.2618378566,0.266776007,0.2863054816,0.2290840265,Sudeste,11348.2326546,0.24939542199,0.0101883698,0.3544901361,0.3646785059,0.230310455
428,427,Sudeste,Rio De Janeiro Norte,praia de unamar,-22.609524,-41.997761,2,2,Right and left,Beach-break,Beginners wave,2,2,0,2,Rio de Janeiro,0.3366058963,0.3875710979,0.2436522468,0.3027160188,Sudeste,72781.8555813,0.262502846216,0.0653430786,0.3731210017,0.4384640803,0.2769092782
429,428,Sudeste,Rio De Janeiro Norte,Costazul,-22.525118,-41.920348,3.5,4,Right and left,Beach-break,Experienced surfers,2,4,0,3.5,Rio de Janeiro,0.4163475381,0.3891760637,0.4323909009,0.3882757308,Sudeste,804.205711365,0.34506304719499997,7.220107e-4,0.4904719003,0.491193911,0.3102104767
430,429,Sudeste,Rio De Janeiro Norte,Pecado,-22.410545,-41.808257,3.5,4,Right and left,Beach-break,All surfers,2,4,1,3.5,Rio de Janeiro,0.5473326156,0.3992807394,0.4162195897,0.6053667093,Sudeste,29414.2297153,0.189017359855,0.0264079049,0.2686688837,0.2950767886,0.1863539209
431,430,Sudeste,Rio De Janeiro Norte,Cavaleiros,-22.405111,-41.798359,3.5,4,Right and left,Beach-break,All surfers,2,4,1,3.5,Rio de Janeiro,0.5388090136,0.3800123632,0.3772530286,0.5927664791,Sudeste,29414.2297153,0.194029098833,0.0264079049,0.2757925591,0.302200464,0.1908528341
432,431,Sudeste,Rio De Janeiro Norte,Grussaí,-21.690031,-41.022263,3,3,Right and left,Beach-break,All surfers,2,3,1,3,Rio de Janeiro,0.4999319781,0.405604064,0.4299210607,0.4947512567,Sudeste,30509.9464779,0.321549618483,0.0273916323,0.4570499615,0.4844415938,0.3059460925
536,535,Sudeste,Rio De Janeiro Norte,atafona - sao joao da barra,-21.630726,-41.014155,3,3,Right and left,Sand-bar,All surfers,2,3,1,3,Rio de Janeiro,0.5393214996,0.5294113129,0.4337381014,0.4972462242,Sudeste,175504.242052,0.351629625292,0.1575665718,0.4998056208,0.6573721926,0.4151593427
68,67,Sudeste,NA,Marataizes,-21.044883,-40.827456,NA,NA,NA,NA,NA,1,1,1,1,Espírito Santo,0.2539186994,0.2238791266,0.1959980818,0.1507645463,Sudeste,40625.4628582,0.408651600438,0.0364732774,0.5808565382,0.6173298156,0.3898708272
69,68,Sudeste,NA,Ponta do Ubu,-20.793246,-40.579551,NA,NA,NA,NA,NA,1,1,1,1,Espírito Santo,0.3852628369,0.3437103096,0.2795301973,0.3277585023,Sudeste,231139.48778,0.255702474497,0.2075155351,0.3634549675,0.5709705026,0.3605928897
70,69,Sudeste,NA,Ponta dos Castelhanos,-20.755085,-40.560755,NA,NA,NA,NA,NA,1,1,1,1,Espírito Santo,0.4076812909,0.385516241,0.4375332193,0.342304599,Sudeste,200635.737347,0.310105392375,0.1801294655,0.4407831622,0.6209126277,0.39213353
71,70,Sudeste,NA,Maimba,-20.707022,-40.514368,NA,NA,NA,NA,NA,1,1,1,1,Espírito Santo,0.6179978511,0.4624198291,0.4455010582,0.6146164505,Sudeste,185531.81945,0.296268347344,0.1665692659,0.4211152151,0.587684481,0.3711484994
72,71,Sudeste,NA,Praia do Morro,-20.659788,-40.493843,NA,NA,NA,NA,NA,1,1,1,1,Espírito Santo,0.6711342659,0.6898080782,0.3070044308,0.6665076766,Sudeste,216533.159025,0.314716709289,0.1944020678,0.4473376785,0.6417397463,0.4052867679
433,432,Sudeste,Esperito Santo,Setiba Pina,-20.635264,-40.425729,3.5,3,Right and left,Beach-break,Experienced surfers,2,3,0,3.5,Espírito Santo,0.6970982444,0.4808189763,0.5456138639,0.7571748807,Sudeste,36716.8945675,0.277164737681,0.0329641901,0.3939613839,0.426925574,0.2696222059
73,72,Sudeste,NA,Ponta de Bororo,-20.614518,-40.415382,NA,NA,NA,NA,NA,1,1,1,1,Espírito Santo,0.5565934049,0.3893639973,0.5632787688,0.5845293888,Sudeste,31386.975378,0.272044743516,0.0281790232,0.3866838348,0.414862858,0.2620040722
74,73,Sudeste,NA,Tropical,-20.559544,-40.39181,NA,NA,NA,NA,NA,1,1,1,1,Espírito Santo,0.3875636262,0.3779573664,0.4307085478,0.39371724,Sudeste,3266.16012001,0.235725981529,0.0029323374,0.3350604217,0.3379927591,0.2134572367
75,74,Sudeste,NA,Dunas de Ule,-20.5421,-40.379861,NA,NA,NA,NA,NA,1,1,1,1,Espírito Santo,0.3685327458,0.3518647101,0.3626704535,0.3810555436,Sudeste,385.635803223,0.208533650681,3.462213e-4,0.296409299,0.2967555203,0.1874141136
76,75,Sudeste,NA,Guarapari - Ule,-20.541319,-40.378386,NA,NA,NA,NA,NA,1,1,1,1,Espírito Santo,0.3673795741,0.3514747726,0.3516004425,0.3796117778,Sudeste,385.635803223,0.208533650681,3.462213e-4,0.296409299,0.2967555203,0.1874141136
77,76,Sudeste,NA,Ponta da Fruta,-20.516837,-40.358133,NA,NA,NA,NA,NA,1,1,1,1,Espírito Santo,0.3623545686,0.3348469222,0.2828041927,0.37509683,Sudeste,61.8401260376,0.204122388514,5.55197e-5,0.2901391401,0.2901946598,0.1832706427
78,77,Sudeste,NA,Coral Dois,-20.448948,-40.3303,NA,NA,NA,NA,NA,1,1,1,1,Espírito Santo,0.3864929323,0.3773224777,0.2963222812,0.4033661514,Sudeste,4009.57268906,0.206700621505,0.0035997684,0.2938038351,0.2974036035,0.1878234065
79,78,Sudeste,NA,Ponta da Belina,-20.445827,-40.329245,NA,NA,NA,NA,NA,1,1,1,1,Espírito Santo,0.3758792667,0.3784983227,0.2861736119,0.3941572054,Sudeste,4009.57268906,0.196100589633,0.0035997684,0.2787369718,0.2823367402,0.1783080222
80,79,Sudeste,NA,Coral Um,-20.437659,-40.326007,NA,NA,NA,NA,NA,1,1,1,1,Espírito Santo,0.3606154481,0.3916219571,0.326484091,0.3762030124,Sudeste,4009.57268906,0.19309663776,0.0035997684,0.2744671608,0.2780669292,0.1756114494
537,536,Sudeste,Esperito Santo,Cemitério,-20.430439,-40.322749,3.5,2,Right,Sand-bar,Experienced surfers,1,2,0,3.5,Espírito Santo,0.3784161351,0.4150867953,0.439103643,0.4032848473,Sudeste,4009.57268906,0.180635739353,0.0035997684,0.2567552657,0.2603550341,0.1644256116
81,80,Sudeste,NA,"Barrao, Brazil",-20.427381,-40.320982,NA,NA,NA,NA,NA,1,1,1,1,Espírito Santo,0.3527814288,0.3942000403,0.4042154222,0.3732348917,Sudeste,4009.57268906,0.175322923489,0.0035997684,0.2492036402,0.2528034086,0.1596564292
82,81,Sudeste,NA,Barrinha,-20.422541,-40.321934,NA,NA,NA,NA,NA,1,1,1,1,Espírito Santo,0.3464501189,0.4022427501,0.4343759149,0.3677735412,Sudeste,4224.74667168,0.168780659359,0.0037929502,0.2399044795,0.2436974297,0.1539056046
434,433,Sudeste,Esperito Santo,Barra Sol,-20.384262,-40.310088,3.5,2,Right and left,Sand-bar,Experienced surfers,2,2,0,3.5,Espírito Santo,0.5115894981,0.3762079399,0.3307128237,0.5353890117,Sudeste,26426.3293648,0.256457733218,0.0237253873,0.3645284906,0.3882538779,0.2451993354
435,434,Sudeste,Esperito Santo,Secret,-20.379057,-40.307132,3,2,Right and left,Sand-bar,All surfers,2,2,1,3,Espírito Santo,0.5487929036,0.4031415582,0.3440805233,0.5996654816,Sudeste,30342.9153728,0.207996053233,0.0272416729,0.2956451591,0.322886832,0.2039171819
436,435,Sudeste,Esperito Santo,Coral do Céu,-20.3787,-40.286881,3.5,2,Left,Reef-rocky,Pros or kamikaze only...,1,2,0,3.5,Espírito Santo,0.3864153319,0.2796909373,0.3497401982,0.4089546404,Sudeste,26330.9994965,0.177827757082,0.0236398008,0.2527640055,0.2764038063,0.1745611144
437,436,Sudeste,Esperito Santo,Pompeia,-20.356919,-40.289633,3.5,3,Right and left,Beach-break,All surfers,2,3,1,3.5,Espírito Santo,0.5126037062,0.4950129033,0.3238532451,0.5659624934,Sudeste,49153.7405357,0.165957347267,0.0441299099,0.2358914296,0.2800213395,0.1768457452
438,437,Sudeste,Esperito Santo,D2,-20.348965,-40.270665,3.5,3,Right,Reef-rocky,Experienced surfers,1,3,0,3.5,Espírito Santo,0.3307334984,0.3553614653,0.3498932549,0.3377668876,Sudeste,48607.5245628,0.167588348538,0.0436395207,0.2382097314,0.2818492521,0.1780001521
439,438,Sudeste,Esperito Santo,Canal de Vitória,-20.317524,-40.288539,3,1,Left,Sand-bar,All surfers,1,1,1,3,Espírito Santo,0.6601818921,0.2627047017,0.1738649235,0.6303242556,Sudeste,546191.81587,0.164886096737,0.4903674748,0.2343687563,0.7247362311,0.4577026846
83,82,Sudeste,NA,Praia de Camburi,-20.279677,-40.248994,NA,NA,NA,NA,NA,1,1,1,1,Espírito Santo,0.4857857228,0.39143992,0.1216740553,0.4273382133,Sudeste,420340.445417,0.204471836473,0.3773789295,0.2906358447,0.6680147742,0.4218805993
440,439,Sudeste,Esperito Santo,Praia de Camburi,-20.275804,-40.270987,3,1,Right and left,Beach-break,All surfers,2,1,1,3,Espírito Santo,0.7290989663,0.6030451006,0.453749529,0.6852271829,Sudeste,621289.916241,0.198994929849,0.5577900629,0.282850981,0.8406410439,0.5309016523
84,83,Sudeste,NA,Velzyland,-20.244839,-40.216205,NA,NA,NA,NA,NA,1,1,1,1,Espírito Santo,0.393569041,0.2592112783,0.2847760423,0.3893263011,Sudeste,133114.212301,0.184657548693,0.1195090777,0.2624718571,0.3819809348,0.241237697
441,440,Sudeste,Esperito Santo,Prainha de Carapebus,-20.23655,-40.215025,3.5,2,Right,Point-break,Experienced surfers,1,2,0,3.5,Espírito Santo,0.4372988504,0.2856246842,0.3326458755,0.4105139997,Sudeste,117883.954449,0.281487212562,0.1058354508,0.4001053407,0.5059407915,0.31952377789999997
85,84,Sudeste,NA,Ponta da Cacao,-20.219573,-40.196268,NA,NA,NA,NA,NA,1,1,1,1,Espírito Santo,0.2364893106,0.312661844,0.3456643235,0.1756917143,Sudeste,2208.23900986,0.311441333491,0.0019825427,0.4426820661,0.4446646088,0.2808251837
86,85,Sudeste,NA,"Manguinhos, Brazil",-20.199344,-40.190267,NA,NA,NA,NA,NA,1,1,1,1,Espírito Santo,0.2692774807,0.2718408835,0.3208722331,0.1885974304,Sudeste,0,0.385970214149,0,0.5486172627,0.5486172627,0.3464758393
87,86,Sudeste,NA,Praia da Baleia,-20.171105,-40.184866,NA,NA,NA,NA,NA,1,1,1,1,Espírito Santo,0.2966992771,0.2470594366,0.2493760191,0.2388737149,Sudeste,0,0.344539194043,0,0.4897272966,0.4897272966,0.3092842454
442,441,Sudeste,Esperito Santo,Barrote-Jacaraipe,-20.151101,-40.183461,3,3,Right and left,Beach-break,All surfers,2,3,1,3,Espírito Santo,0.429479216,0.3392015947,0.3498909874,0.4202660393,Sudeste,0,0.305165892467,0,0.4337621673,0.4337621673,0.2739398142
443,442,Sudeste,Esperito Santo,Jacaraípe- Solemar,-20.13565,-40.180628,3,3,Right and left,Sand-bar,All surfers,2,3,1,3,Espírito Santo,0.4466159585,0.3919073337,0.2205280467,0.4402608597,Sudeste,275.664451599,0.308786354866,2.474898e-4,0.438908285,0.4391557748,0.2773461136
88,87,Sudeste,NA,Jacaraipe - Solemar,-20.109775,-40.171481,NA,NA,NA,NA,NA,1,1,1,1,Espírito Santo,0.3022155342,0.2438877115,0.20941174,0.265240865,Sudeste,10165.3503017,0.287549887721,0.0091263857,0.4087228146,0.4178492003,0.2638900783
89,88,Sudeste,NA,Xa,-20.107229,-40.171175,NA,NA,NA,NA,NA,1,1,1,1,Espírito Santo,0.3060443011,0.2420825203,0.2202653127,0.2698188881,Sudeste,11052.2202206,0.287549887721,0.0099226117,0.4087228146,0.4186454263,0.2643929299
90,89,Sudeste,NA,Nova Almeida,-20.058462,-40.183001,NA,NA,NA,NA,NA,1,1,1,1,Espírito Santo,0.4033126123,0.3519663228,0.2525650957,0.381846922,Sudeste,29496.5396042,0.301238963519,0.0264818022,0.4281804386,0.4546622408,0.2871391263
91,90,Sudeste,NA,Praia Grande,-20.0471,-40.182743,NA,NA,NA,NA,NA,1,1,1,1,Espírito Santo,0.4273823599,0.3882826237,0.3319695194,0.403150332,Sudeste,29496.5396042,0.324188260663,0.0264818022,0.460800522,0.4872823242,0.3077401382
444,443,Sudeste,Esperito Santo,Regencia,-19.659239,-39.841576,3.5,4,Right and left,Beach-break,Experienced surfers,2,4,0,3.5,Espírito Santo,0.4250256275,0.4687690159,0.4167426015,0.4134172847,Sudeste,0,0.308473452433,0,0.4384635262,0.4384635262,0.2769089283
92,91,Sudeste,NA,Regencia,-19.562811,-39.764264,NA,NA,NA,NA,NA,1,1,1,1,Espírito Santo,0.3602192128,0.4170869641,0.3673335273,0.3078217334,Sudeste,0,0.372027660006,0,0.5287993451,0.5287993451,0.333959956
93,92,Sudeste,NA,Guriri,-18.91075,-39.738564,NA,NA,NA,NA,NA,1,1,1,1,Espírito Santo,0.4352782689,0.4749064227,0.4382085187,0.2421414153,Sudeste,358143.949034,0.560672102476,0.3215393179,0.7969381648,1.1184774827,0.706367537
445,444,Sudeste,Esperito Santo,Guriri,-18.739378,-39.746389,3,2,Right and left,Beach-break,All surfers,2,2,1,3,Espírito Santo,0.622396397,0.4037187987,0.2914008379,0.6309891364,Sudeste,1647.98137474,0.384179977506,0.001479547,0.546072624,0.547552171,0.3458031873
538,537,Nordeste,Bahia Sul,Sirihyba,-14.9551509,-39.0073383,3,4,Right and left,Beach-break,All surfers,2,4,1,3,Bahia,0.4888799343,0.4570521952,0.475806943,0.508739951,Nordeste,10649.5576,0.261789121751,0.0095611038,0.3721065152,0.381667619,0.2410398244
94,93,Nordeste,NA,Milionarios,-14.847631,-39.022942,NA,NA,NA,NA,NA,1,1,1,1,Bahia,0.6837630165,0.8103145885,0.3766458116,0.6205909086,Nordeste,330584.048393,0.403077940942,0.2967962176,0.5729341501,0.8697303677,0.5492728349
446,445,Nordeste,Bahia Sul,Backdoor,-14.840603,-39.001465,3.5,2,Right,Point-break,Experienced surfers,1,2,0,3.5,Bahia,0.6642615869,0.6706069241,0.2320760061,0.5943448414,Nordeste,323090.724878,0.412567092769,0.2900687602,0.5864220109,0.8764907711,0.5535423258
95,94,Nordeste,NA,Sul,-14.83112,-39.022563,NA,NA,NA,NA,NA,1,1,1,1,Bahia,0.6936543918,0.823299195,0.3931873213,0.6176544797,Nordeste,348174.332712,0.431777193382,0.3125886609,0.6137272081,0.926315869,0.5850090583
96,95,Nordeste,NA,Pedra da Cachorra,-14.821026,-39.023633,NA,NA,NA,NA,NA,1,1,1,1,Bahia,0.6913689582,0.7956245134,0.3454888147,0.6080510419,Nordeste,353404.291454,0.445992996996,0.317284084,0.6339335219,0.9512176059,0.6007355962
97,96,Nordeste,NA,Jardim Atlantico,-14.815026,-39.0234,NA,NA,NA,NA,NA,1,1,1,1,Bahia,0.6838114562,0.7894803284,0.4058248129,0.5964808959,Nordeste,354995.82058,0.450465829314,0.3187129485,0.6402911965,0.959004145,0.6056531368
98,97,Nordeste,NA,Baduska,-14.809442,-39.023423,NA,NA,NA,NA,NA,1,1,1,1,Bahia,0.6810437095,0.7829786468,0.3833192486,0.587308705,Nordeste,356905.203964,0.464089307776,0.32042718059999997,0.6596555805,0.9800827611,0.6189652064
99,98,Nordeste,NA,Norte,-14.66009,-39.063007,NA,NA,NA,NA,NA,1,1,1,1,Bahia,0.3861375065,0.3696402189,0.3519945288,0.2632351781,Nordeste,45746.1833229,0.543310179317,0.0410706271,0.7722599632,0.8133305903,0.5136539043
100,99,Nordeste,NA,Havaizinho,-14.468062,-39.023161,NA,NA,NA,NA,NA,1,1,1,1,Bahia,0.4060038883,0.3331082093,0.2151369379,0.3542089707,Nordeste,14795.1863728,0.391096958005,0.0132830225,0.5559044058,0.5691874283,0.3594668002
447,446,Nordeste,Bahia Sul,Itacarezinho,-14.370585,-39.006014,3,4,Right and left,Beach-break,All surfers,2,4,1,3,Bahia,0.6223631063,0.5761145481,0.5621778399,0.6194148319,Nordeste,12836.895174,0.407080075326,0.0115248813,0.5786227756,0.5901476569,0.3727041029
448,447,Nordeste,Bahia Sul,Engenhoca,-14.352541,-39.00095,NA,4,Right and left,Beach-break,All surfers,2,4,1,1,Bahia,0.5775022214,0.5079695164,0.49195088,0.5431106244,Nordeste,61624.3232498,0.428594342723,0.0553259183,0.6092031107,0.664529029,0.4196791985
449,448,Nordeste,Bahia Sul,Jeribucaçu,-14.344392,-39.001379,3,4,Right and left,Beach-break,All surfers,2,4,1,3,Bahia,0.6880580625,0.5945020836,0.602803565,0.6805260974,Nordeste,61575.1819744,0.431223747607,0.0552817996,0.6129405414,0.668222341,0.4220116868
101,100,Nordeste,NA,Sao Jose,-14.316062,-38.990701,NA,NA,NA,NA,NA,1,1,1,1,Bahia,0.5155880917,0.4780848562,0.4327407362,0.4622869473,Nordeste,58829.4741936,0.438954016451,0.0528167209,0.6239283295,0.6767450504,0.4273941512
450,449,Nordeste,Bahia Sul,Prainha,-14.297738,-38.981037,3.5,3,Right and left,Beach-break,All surfers,2,3,1,3.5,Bahia,0.6948375539,0.6848396914,0.5851826669,0.6833501999,Nordeste,66404.6843243,0.442890563067,0.0596176955,0.6295237287,0.6891414242,0.4352230045
451,450,Nordeste,Bahia Sul,Tiririca,-14.28601,-38.982925,3.5,4,Right and left,Beach-break,All surfers,2,4,1,3.5,Bahia,0.7036367113,0.7115304887,0.5950249611,0.6937649452,Nordeste,66404.6843243,0.444454228573,0.0596176955,0.6317463196,0.6913640151,0.436626668
452,451,Nordeste,Bahia Sul,Praia da Resende,-14.283889,-38.985069,3,4,Right and left,Beach-break,All surfers,2,4,1,3,Bahia,0.6783585192,0.6972097317,0.5510461514,0.6601178498,Nordeste,66404.6843243,0.449648359965,0.0596176955,0.6391292472,0.6987469427,0.4412893103
102,101,Nordeste,NA,Corals,-14.275408,-38.982569,NA,NA,NA,NA,NA,1,1,1,1,Bahia,0.5146266264,0.5450019556,0.4129408222,0.4528080258,Nordeste,66404.6843243,0.455672192622,0.0596176955,0.6476915105,0.707309206,0.4466967547
453,452,Nordeste,Bahia Sul,Boca da Barra,-14.26588,-38.986702,3.5,4,Right,Rivermouth,Experienced surfers,1,4,0,3.5,Bahia,0.5383012429,0.5739680401,0.462295,0.4749524231,Nordeste,81513.4334087,0.46560762771,0.0731822326,0.6618137173,0.7349959499,0.4641821466
454,453,Nordeste,Bahia Sul,Pontal,-14.263551,-38.993568,3,4,Right and left,Beach-break,All surfers,2,4,1,3,Bahia,0.6958853244,0.7320986878,0.7219602722,0.6669532145,Nordeste,103291.808552,0.46560762771,0.0927347167,0.6618137173,0.754548434,0.476530397
455,454,Nordeste,Bahia Sul,Praia dos Algodoes,-14.0775,-38.954444,3,3,Right and left,Reef-coral,All surfers,2,3,1,3,Bahia,1,0.8439065247,0.6622741112,0.8829274788,Nordeste,586806.87203,0.588373823367,0.5268314091,0.8363133335,1.3631447426,0.8608856318
456,455,Nordeste,Bahia Sul,Saquaira,-14.041089,-38.948078,3.5,4,Right and left,Beach-break,Experienced surfers,2,4,0,3.5,Bahia,0.9655672008,0.8028849874,0.5106770357,0.8208745254,Nordeste,641336.859625,0.603154873447,0.5757880788,0.8573230874,1.4331111662,0.9050724939
457,456,Nordeste,Bahia Sul,Taipu de Fora,-13.942398,-38.92662,3,4,Right and left,Beach-break,All surfers,2,4,1,3,Bahia,0.6819933777,0.6586859523,0.543047678,0.5762495844,Nordeste,449803.896591,0.437238443459,0.4038310251,0.6214898176,1.0253208427,0.6475350371
539,538,Nordeste,Bahia Sul,Sol do Muta,-13.8818593,-38.9483376,NA,3,Right,Point-break,All surfers,1,3,1,1,Bahia,0.5160924831,0.3330758489,0.1995033734,0.3444256041,Nordeste,617845.039473,0.393766138136,0.5546972749,0.5596983729,1.1143956478000001,0.7037896794
458,457,Nordeste,Bahia Sul,Pedra do Moleque,-13.377011,-38.91263,3.5,3,Right,Reef-coral,Experienced surfers,1,3,0,3.5,Bahia,0.4568475274,0.3980776033,0.3054227742,0.3448941615,Nordeste,108329.065996,0.521631801716,0.0972571338,0.7414463622,0.838703496,0.5296780059
103,102,Nordeste,NA,Tony,-13.016732,-38.488781,NA,NA,NA,NA,NA,1,1,1,1,Bahia,0.2472622574,0.1906603588,0.2868040441,0.1798715722,Nordeste,0,0.337022332905,0,0.4790428457,0.4790428457,0.3025365466
104,103,Nordeste,NA,Meridien,-13.016598,-38.484879,NA,NA,NA,NA,NA,1,1,1,1,Bahia,0.2472979148,0.188368852,0.2639338286,0.1799162151,Nordeste,0,0.337022332905,0,0.4790428457,0.4790428457,0.3025365466
105,104,Nordeste,NA,Amaralina,-13.015369,-38.471834,NA,NA,NA,NA,NA,1,1,1,1,Bahia,0.2589971149,0.1925088996,0.1877129076,0.1899452233,Nordeste,0,0.349023004677,0,0.4961005757,0.4961005757,0.3133092504
106,105,Nordeste,NA,Tubao,-13.010684,-38.461411,NA,NA,NA,NA,NA,1,1,1,1,Bahia,0.2778505849,0.1914782678,0.2668345873,0.2067488345,Nordeste,0,0.366694893533,0,0.5212193619,0.5212193619,0.3291728645
459,458,Nordeste,Bahia Norte,Farol da Barra,-13.009994,-38.533602,3.5,2,Left,breakwater/jetty,Experienced surfers,1,2,0,3.5,Bahia,0.3141006317,0.2405629915,0.3507251844,0.2881489094,Nordeste,0,0.273110102478,0,0.3881981338,0.3881981338,0.2451641306
460,459,Nordeste,Bahia Norte,Barravento,-13.009764,-38.526971,3.5,3,Right and left,Beach-break,All surfers,2,3,1,3.5,Bahia,0.4704974341,0.4249320735,0.4480998666,0.4785079206,Nordeste,0,0.287269490912,0,0.4083242592,0.4083242592,0.2578746606
461,460,Nordeste,Bahia Norte,Espanhol,-13.00623,-38.533398,3.5,2,Right and left,Point-break,Experienced surfers,2,2,0,3.5,Bahia,0.3916935269,0.3117511357,0.3871295678,0.385294874,Nordeste,0,0.273110102478,0,0.3881981338,0.3881981338,0.2451641306
107,106,Nordeste,NA,Psiu,-12.995919,-38.43939,NA,NA,NA,NA,NA,1,1,1,1,Bahia,0.2609431631,0.2403996746,0.1543963397,0.1783055511,Nordeste,0,0.385599541229,0,0.548090389,0.548090389,0.3461430955
462,461,Nordeste,Bahia Norte,Corsário,-12.976457,-38.423395,3,4,Right and left,Beach-break,All surfers,2,4,1,3,Bahia,0.4487296745,0.4351540675,0.406619482,0.3900018774,Nordeste,0,0.446434069402,0,0.6345604613,0.6345604613,0.4007527349
108,107,Nordeste,NA,Alex,-12.973279,-38.406477,NA,NA,NA,NA,NA,1,1,1,1,Bahia,0.31866757020000003,0.341094995,0.3841795311,0.2051968903,Nordeste,0,0.503517013104,0,0.7156980392,0.7156980392,0.4519946704
109,108,Nordeste,NA,Terceira Ponte,-12.96384,-38.396822,NA,NA,NA,NA,NA,1,1,1,1,Bahia,0.3497105602,0.3358600391,0.3261587661,0.2385580034,Nordeste,0,0.517820551595,0,0.7360290591,0.7360290591,0.4648346003
110,109,Nordeste,NA,SESC,-12.960485,-38.390998,NA,NA,NA,NA,NA,1,1,1,1,Bahia,0.5227096015,0.3570051442,0.3731553367,0.4552743745,Nordeste,0,0.517502679386,0,0.7355772362,0.7355772362,0.4645492543
111,110,Nordeste,NA,Farol,-12.958147,-38.352813,NA,NA,NA,NA,NA,1,1,1,1,Bahia,0.5793643182,0.4071894031,0.323862134,0.5186446274,Nordeste,0,0.537150333302,0,0.7635043708,0.7635043708,0.4821864635
463,462,Nordeste,Bahia Norte,Jaguaribe,-12.955755,-38.385007,3.5,3,Right and left,Beach-break,All surfers,2,3,1,3.5,Bahia,0.7207140474,0.5450003701,0.4825570779,0.6987452266,Nordeste,0,0.529013555339,0,0.7519387715,0.7519387715,0.4748822808
112,111,Nordeste,NA,Pedro do Sal,-12.954224,-38.347234,NA,NA,NA,NA,NA,1,1,1,1,Bahia,0.5883763781,0.3987369978,0.3420161879,0.5291657216,Nordeste,0,0.539130286515,0,0.7663186722,0.7663186722,0.4839638181
113,112,Nordeste,NA,Itapoa,-12.952339,-38.369609,NA,NA,NA,NA,NA,1,1,1,1,Bahia,0.5599411881,0.3789531035,0.2272291177,0.4960440363,Nordeste,0,0.532688524668,0,0.7571623653,0.7571623653,0.4781812091
114,113,Nordeste,NA,Seper,-12.952041,-38.343244,NA,NA,NA,NA,NA,1,1,1,1,Bahia,0.5983629651,0.3837175205,0.3691295965,0.5399875615,Nordeste,0,0.543499174792,0,0.772528601,0.772528601,0.4878856603
115,114,Nordeste,NA,Corrente,-12.948985,-38.3392,NA,NA,NA,NA,NA,1,1,1,1,Bahia,0.6021260949,0.6490859782,0.3572961257,0.5459287531,Nordeste,0,0.540303640597,0,0.7679864753,0.7679864753,0.4850171089
116,115,Nordeste,NA,Stela Maris,-12.947385,-38.337372,NA,NA,NA,NA,NA,1,1,1,1,Bahia,0.5941074236,0.6481255175,0.3395315896,0.5337197525,Nordeste,0,0.545941461721,0,0.7760000625,0.7760000625,0.4900780403
117,116,Nordeste,NA,Plator,-12.946393,-38.333084,NA,NA,NA,NA,NA,1,1,1,1,Bahia,0.5957222358,0.6529481917,0.3104227976,0.5372899739,Nordeste,1846.10831642,0.540751702481,0.0016574241,0.7686233495,0.7702807736,0.4864660588
540,539,Nordeste,Bahia Norte,Rock Quente,-12.937672,-38.326481,3.5,NA,Right and left,Reef-rocky,NA,2,1,1,3.5,Bahia,0.7934152646,0.8059775731,0.4700874081,0.7804922882,Nordeste,12629.3776245,0.54513623354,0.0113385734,0.7748555129,0.7861940863,0.496516013
464,463,Nordeste,Bahia Norte,Stella Maris,-12.936098,-38.323714,3.5,4,Right and left,Beach-break,All surfers,2,4,1,3.5,Bahia,0.7875720628,0.8079738632,0.4775001166,0.7731766252,Nordeste,12629.3776245,0.54513623354,0.0113385734,0.7748555129,0.7861940863,0.496516013
118,117,Nordeste,NA,Aleluia,-12.926801,-38.312619,NA,NA,NA,NA,NA,1,1,1,1,Bahia,0.618305789,0.6427656041,0.3201856795,0.5607828226,Nordeste,12629.3776245,0.546365757371,0.0113385734,0.7766031555,0.7879417289,0.4976197259
119,118,Nordeste,NA,Ipitanga,-12.920477,-38.309718,NA,NA,NA,NA,NA,1,1,1,1,Bahia,0.6140561447,0.6193375207,0.3141693359,0.5530526511,Nordeste,12629.3776245,0.55262715205,0.0113385734,0.7855030889,0.7968416623,0.5032404238
541,540,Nordeste,Bahia Norte,Ribeira,-12.918762,-38.50208,NA,3,Right and left,Beach-break,Beginners wave,2,3,0,1,Bahia,0,0,0,0,Nordeste,0,0,0,0,0,0
120,119,Nordeste,NA,Vilas,-12.894546,-38.290791,NA,NA,NA,NA,NA,1,1,1,1,Bahia,0.632325121,0.613329119,0.3899192859,0.5660271155,Nordeste,12629.3776245,0.578347484571,0.0113385734,0.8220619163,0.8334004897,0.5263289251
121,120,Nordeste,NA,Busca Vida,-12.863464,-38.255962,NA,NA,NA,NA,NA,1,1,1,1,Bahia,0.6253124121,0.4542371292,0.3184981074,0.5492944542,Nordeste,12629.3776245,0.599012642782,0.0113385734,0.8514353293,0.8627739027,0.5448795224
465,464,Nordeste,Bahia Norte,Praia do forte,-12.734415,-38.144445,3.5,4,Right and left,Reef-coral,Experienced surfers,2,4,0,3.5,Bahia,0.6009635107,0.5489794687,0.5964415621,0.5022922677,Nordeste,121130.110634,0.573400981813,0.1087498288,0.8150309675,0.9237807963,0.5834080488
466,465,Nordeste,Bahia Norte,Scar Reef,-12.674941,-38.085174,3.5,2,Right and left,Reef-coral,Experienced surfers,2,2,0,3.5,Bahia,0.736262581,0.5640793304,0.4595565032,0.677095685,Nordeste,121130.110634,0.559344299147,0.1087498288,0.7950508279,0.9038006567,0.5707897152
122,121,Nordeste,NA,Itacimirim,-12.639232,-38.048194,NA,NA,NA,NA,NA,1,1,1,1,Bahia,0.6368246743,0.5165397425,0.500625861,0.5625328376,Nordeste,0,0.610042705226,0,0.8671134372,0.8671134372,0.5476201286
542,541,Nordeste,Bahia Norte,Praia das Ondas,-12.596084,-38.028939,3,3,Right and left,Beach-break,All surfers,2,3,1,3,Bahia,0.8166100113,0.689702153,0.6207330677,0.8087189642,Nordeste,0,0.555225974827,0,0.7891970502,0.7891970502,0.4984125163
123,122,Nordeste,NA,Praia do Forte,-12.583305,-38.005078,NA,NA,NA,NA,NA,1,1,1,1,Bahia,0.5880584233,0.5379537988,0.4641777366,0.5254715925,Nordeste,0,0.547695016337,0,0.7784925614,0.7784925614,0.4916521626
467,466,Nordeste,Bahia Norte,Casinha,-12.556333,-37.988352,3.5,3,Right,Reef-coral,Experienced surfers,1,3,0,3.5,Bahia,0.5628147387,0.4974198112,0.3675981724,0.5015118942,Nordeste,0,0.527828881921,0,0.7502548791,0.7502548791,0.4738188289
124,123,Nordeste,NA,Imbassai,-12.342055,-37.8462,NA,NA,NA,NA,NA,1,1,1,1,Bahia,0.5515251018,0.4296008748,0.3513934011,0.4901246032,Nordeste,102201.721142,0.456136729166,0.0917560433,0.6483518018,0.7401078451,0.4674105324
125,124,Nordeste,NA,Costa do Sauipe,-12.022171,-37.645508,NA,NA,NA,NA,NA,1,1,1,1,Bahia,0.4905076424,0.4450071502,0.3904589139,0.4285833913,Nordeste,141464.776043,0.392743473603,0.1270061597,0.5582447596,0.6852509193,0.4327659801
126,125,Nordeste,NA,Marlin,-11.939803,-37.602476,NA,NA,NA,NA,NA,1,1,1,1,Bahia,0.3597556976,0.4154003846,0.3374310123,0.340716196,Nordeste,50499.6620674,0.253147079017,0.0453382695,0.3598227336,0.4051610031,0.2558769258
127,126,Nordeste,NA,Conde,-11.848141,-37.55817,NA,NA,NA,NA,NA,1,1,1,1,Bahia,0.4165635351,0.390994388,0.2925155526,0.3086635855,Nordeste,389981.326809,0.306821652247,0.3501227094,0.4361156608,0.7862383702,0.4965439802
128,127,Nordeste,NA,Mangue Seco,-11.483614,-37.364454,NA,NA,NA,NA,NA,1,1,1,1,Bahia,0.5814331465,0.4785541351,0.428074977,0.3624990237,Nordeste,939791.453836,0.356024598388,0.8437386805,0.5060526265,1.349791307,0.8524523521
129,128,Nordeste,NA,Mosqueiro,-11.138116,-37.145493,NA,NA,NA,NA,NA,1,1,1,1,Sergipe,0.4707122871,0.5057518562,0.4238976922,0.2699987486,Nordeste,652466.677851,0.417660168374,0.5857803576,0.593661298,1.1794416556,0.7448690833
130,129,Nordeste,NA,Aruana,-11.067069,-37.101289,NA,NA,NA,NA,NA,1,1,1,1,Sergipe,0.4833817937,0.2088441598,0.1284829248,0.3828159287,Nordeste,500366.273371,0.261795039187,0.4492255995,0.3721149263,0.8213405258,0.5187125295
131,130,Nordeste,NA,Hawaiizinho,-11.043928,-37.082978,NA,NA,NA,NA,NA,1,1,1,1,Sergipe,0.4554272474,0.2172974458,0.2165992936,0.3648968909,Nordeste,445744.049791,0.251914020663,0.400186121,0.358070067,0.758256188,0.4788720061
132,131,Nordeste,NA,Praia do Meio,-10.999541,-37.050151,NA,NA,NA,NA,NA,1,1,1,1,Sergipe,0.4132782816,0.4965021426,0.3651302156,0.3326244341,Nordeste,285659.267246,0.299764582699,0.25646304,0.4260847568,0.6825477968,0.4310588398
468,467,Nordeste,Sergipe Alagoas,Aracaju,-10.987674,-37.041146,3,3,Right and left,NA,All surfers,2,3,1,3,Sergipe,0.5524658579,0.6979550522,0.4658813668,0.5062250982,Nordeste,281926.084051,0.303841643431,0.2531114123,0.4318798824,0.6849912947,0.4326020158
133,132,Nordeste,NA,Pirambu,-10.746346,-36.855099,NA,NA,NA,NA,NA,1,1,1,1,Sergipe,0.3272811013,0.3680938327,0.3606351707,0.2565308009,Nordeste,5732.78140068,0.3945280813,0.005146854,0.5607813973,0.5659282513,0.3574084871
134,133,Nordeste,NA,Ponta do Mangue,-10.639483,-36.678539,NA,NA,NA,NA,NA,1,1,1,1,Sergipe,0.2895004286,0.3088412895,0.2616033897,0.3513544998,Nordeste,0,0.0288399496343,0,0.0409930447,0.0409930447,0.0258889039
135,134,Nordeste,NA,Pontal de Peba,-10.367584,-36.303941,NA,NA,NA,NA,NA,1,1,1,1,Alagoas,0.2985198734,0.3606946122,0.3331726708,0.2936409376,Nordeste,0,0.208150466325,0,0.2958646416,0.2958646416,0.1868514846
136,135,Nordeste,NA,Mihai,-10.196728,-36.181642,NA,NA,NA,NA,NA,1,1,1,1,Alagoas,0.3875246539,0.3478697115,0.2642680761,0.2887400564,Nordeste,88319.209816,0.45465871887,0.0792924146,0.646250961,0.7255433756,0.4582124317
137,136,Nordeste,NA,Pontal do Coruripe,-10.160775,-36.150664,NA,NA,NA,NA,NA,1,1,1,1,Alagoas,0.4668043219,0.5263303663,0.6612772077,0.371071025,Nordeste,88319.209816,0.498642779832,0.0792924146,0.7087698141,0.7880622287,0.4976958268
138,137,Nordeste,NA,Forjos,-10.107662,-36.097672,NA,NA,NA,NA,NA,1,1,1,1,Alagoas,0.5577520757,0.4592058884,0.3862108706,0.4463053674,Nordeste,98199.9067726,0.592786028304,0.0881632403,0.8425848324,0.9307480727,0.5878081891
139,138,Nordeste,NA,Poxim,-10.063563,-36.040909,NA,NA,NA,NA,NA,1,1,1,1,Alagoas,0.4552620487,0.5085158806,0.4371910517,0.3476278964,Nordeste,54105.4857368,0.543619306615,0.0485755547,0.7726993561,0.8212749108,0.5186710907
140,139,Nordeste,NA,Jacarecica,-9.916383,-35.945964,NA,NA,NA,NA,NA,1,1,1,1,Alagoas,0.3963178408,0.3489416574,0.3850114455,0.2526450155,Nordeste,164905.497103,0.52868383267,0.1480510873,0.7514701044,0.8995211917,0.5680870455
141,140,Nordeste,NA,Praia do Meio,-9.824447,-35.877803,NA,NA,NA,NA,NA,1,1,1,1,Alagoas,0.4128305376,0.3680982652,0.313242624,0.2647584975,Nordeste,179605.691025,0.541642687254,0.1612488262,0.7698897934,0.9311386196,0.5880548366
469,468,Nordeste,Sergipe Alagoas,Praia Do Francês,-9.772375,-35.84517,3.5,4,Right and left,Beach-break,All surfers,2,4,1,3.5,Alagoas,0.5913431841,0.5754914317,0.549370792,0.4767882694,Nordeste,82004.5387726,0.633087744595,0.0736231438,0.8998696085,0.9734927523,0.6148033271
142,141,Nordeste,NA,Praia do Pontal,-9.68259,-35.758537,NA,NA,NA,NA,NA,1,1,1,1,Alagoas,0.5131324353,0.4633415465,0.2281655287,0.367306765,Nordeste,243144.370415,0.561351076455,0.218293441,0.797903257,1.016196698,0.64177273990000006
143,142,Nordeste,NA,Salgema,-9.679629,-35.718974,NA,NA,NA,NA,NA,1,1,1,1,Alagoas,0.5049476366,0.428179465,0.3644127554,0.3732780199,Nordeste,219517.798712,0.534130551409,0.1970816579,0.7592120591,0.956293717,0.6039413828
470,469,Nordeste,Sergipe Alagoas,Pedra Virada,-9.678906,-35.702514,3.5,2,Left,Reef-rocky,Experienced surfers,1,2,0,3.5,Alagoas,0.5161465048,0.4593851096,0.387582183,0.405752909,Nordeste,171952.108276,0.516222059184,0.1543774891,0.7337569653,0.8881344544,0.560895822
144,143,Nordeste,NA,Pier do Emissario,-9.673301,-35.715234,NA,NA,NA,NA,NA,1,1,1,1,Alagoas,0.5016758641,0.4332705232,0.425657148,0.3718973466,Nordeste,218570.238462,0.527672691853,0.1962309445,0.7500328709,0.9462638154,0.5976070604
145,144,Nordeste,NA,Praia do Sobral,-9.666869,-35.710735,NA,NA,NA,NA,NA,1,1,1,1,Alagoas,0.4962619181,0.4352181848,0.407841291,0.3706038144,Nordeste,203668.535286,0.522833105527,0.1828522919,0.7431538929,0.9260061848,0.5848134791
146,145,Nordeste,NA,"Pico da Barra, Brazil",-9.66563,-35.697186,NA,NA,NA,NA,NA,1,1,1,1,Alagoas,0.4915604355,0.4596709647,0.420571657,0.3820193156,Nordeste,137667.785244,0.519562716479,0.123597246,0.7385053687,0.8621026147,0.5444555746
543,542,Nordeste,Sergipe and Alagoas,Rainha,-9.644078,-35.698022,3.5,3,Right and left,Beach-break,All surfers,2,3,1,3.5,Alagoas,0.6626044633,0.619546893,0.4093718874,0.6002808,Nordeste,115631.076849,0.522788655955,0.1038128319,0.7430907124,0.8469035443,0.5348566957
471,470,Nordeste,Sergipe Alagoas,Cruz das Almas,-9.631199,-35.696071,3.5,4,Right and left,Sand-bar,All surfers,2,4,1,3.5,Alagoas,0.666022866,0.563488223,0.4250068096,0.6102821201,Nordeste,81738.2201996,0.529329101637,0.0733840447,0.7523872883,0.825771333,0.5215107784
147,146,Nordeste,NA,Pedra Virada,-9.585522,-35.660038,NA,NA,NA,NA,NA,1,1,1,1,Alagoas,0.4776290448,0.4367425902,0.3050893483,0.3548179767,Nordeste,43824.5009937,0.60419604693,0.0393453532,0.8588030093,0.8981483625,0.5672200437
472,471,Nordeste,Sergipe Alagoas,Riacho Doce,-9.56805,-35.646794,3,3,Right and left,Rivermouth,All surfers,2,3,1,3,Alagoas,0.6665420749,0.6619107057,0.7146572947,0.5729551991,Nordeste,46078.3810387,0.650535299518,0.0413688721,0.9246695269,0.966038399,0.6100955764
148,147,Nordeste,NA,Praia de Jatiuca,-9.531449,-35.590928,NA,NA,NA,NA,NA,1,1,1,1,Alagoas,0.591146101,0.51743029250000006,0.5327268368,0.4564219522,Nordeste,66361.9885082,0.695248348133,0.0595793635,0.9882245615,1.047803925,0.6617340887
473,472,Nordeste,Sergipe Alagoas,New Orleans,-9.52629,-35.583022,3,NA,Right and left,Beach-break,All surfers,2,1,1,3,Alagoas,0.7462030453,0.6744051167,0.7868250772,0.6497478017,Nordeste,66776.1609535,0.697077912914,0.0599512048,0.9908251011,1.0507763059,0.6636112775
149,148,Nordeste,NA,Garca Torta,-9.487114,-35.557477,NA,NA,NA,NA,NA,1,1,1,1,Alagoas,0.5977615054,0.5571926778,0.8303014512,0.4616677492,Nordeste,65738.6795368,0.703532754793,0.0590197607,1,1.0590197607,0.6688173804
150,149,Nordeste,NA,Mirante da Sirena,-9.430906,-35.503683,NA,NA,NA,NA,NA,1,1,1,1,Alagoas,0.5443281216,0.5203125103,0.4670471334,0.3761797378,Nordeste,152772.061678,0.69686497963,0.1371577675,0.9905224382,1.1276802057,0.7121794598
474,473,Nordeste,Sergipe Alagoas,Praia do Morro,-9.327169,-35.438531,3.5,4,Right and left,Beach-break,All surfers,2,4,1,3.5,Alagoas,0.7102346547,0.7573771085,0.7267749403,0.5987313337,Nordeste,224080.304928,0.613270183513,0.2011778465,0.8717009682,1.0728788147,0.6775699802
151,150,Nordeste,NA,Japaratinga,-9.261582,-35.353366,NA,NA,NA,NA,NA,1,1,1,1,Alagoas,0.5464634931,0.5086976967,0.6560559325,0.4087993257,Nordeste,68875.2871037,0.672042021464,0.0618357867,0.9552391369,1.0170749236,0.6423273779
152,151,Nordeste,NA,Impossivel,-8.615505,-35.020375,NA,NA,NA,NA,NA,1,1,1,1,Pernambuco,0.8145506541,0.6315237518,0.560145703,0.6156510431,Nordeste,684253.640442,0.618016667195,0.6143184867,0.8784476103,1.492766097,0.9427471965
153,152,Nordeste,NA,Serrambi,-8.576358,-35.028715,NA,NA,NA,NA,NA,1,1,1,1,Pernambuco,0.7863560392,0.8947547301,0.6314944806,0.5935808214,Nordeste,627244.466557,0.619649076438,0.5631360196,0.8807679134,1.443903933,0.911888599
475,474,Nordeste,Paraiba and Pernambucco,Maracaipe,-8.525427,-35.006261,4,4,Right and left,Beach-break,Experienced surfers,2,4,0,4,Pernambuco,0.9246363465,0.8413385662,0.864207892,0.7698202183,Nordeste,575016.767748,0.644548282363,0.5162463299,0.9161595931,1.432405923,0.9046271019
476,475,Nordeste,Paraiba and Pernambucco,Borete,-8.499622,-35.003128,3,4,Right and left,Beach-break,All surfers,2,4,1,3,Pernambuco,0.9637248334,0.8696405572,0.5674010626,0.8076093686,Nordeste,554459.286396,0.686504628754,0.4977899563,0.9757962569,1.4735862132,0.9306342595
154,153,Nordeste,NA,Porto de Galinhas,-8.488678,-34.999501,NA,NA,NA,NA,NA,1,1,1,1,Pernambuco,0.7840434673,0.6883740678,0.5437140291,0.5726294852,Nordeste,594706.9092309999,0.687118891715,0.5339240114,0.976669369,1.5105933804,0.9540059071
155,154,Nordeste,NA,Cupe,-8.479708,-34.996577,NA,NA,NA,NA,NA,1,1,1,1,Pernambuco,0.7683262167,0.6588349688,0.5549541023,0.5518165273,Nordeste,598828.962633,0.687464643817,0.5376247642,0.9771608203,1.5147855845,0.9566534677
477,476,Nordeste,Paraiba and Pernambucco,cupe,-8.466621,-34.989438,4,3,Right and left,Beach-break,Experienced surfers,2,3,0,4,Pernambuco,0.8367696422,0.787247361,0.570501971,0.6615402454,Nordeste,566244.229927,0.645597114401,0.5083704022,0.9176504008,1.426020803,0.9005946189
156,155,Nordeste,NA,Gaibu,-8.341567,-34.948826,NA,NA,NA,NA,NA,1,1,1,1,Pernambuco,0.475492684,0.3326110156,0.2698426842,0.2935686247,Nordeste,384688.27528,0.541102384451,0.345370642,0.7691218081,1.1144924501,0.7038508143
478,477,Nordeste,Paraiba and Pernambucco,Enseada dos Corais,-8.312229,-34.946179,3.5,4,Right and left,Beach-break,Experienced surfers,2,4,0,3.5,Pernambuco,0.5577720632,0.4786422593,0.3424567578,0.4218790971,Nordeste,316089.850672,0.518697077201,0.2837834207,0.7372749508,1.0210583715,0.6448430998
544,543,Nordeste,Paraiba and Pernambucco,Pedra de Xaréu,-8.303081,-34.945245,3.5,4,Right,Point-break,All surfers,1,4,1,3.5,Pernambuco,0.5622941744,0.5182532881,0.3459643446,0.4276257882,Nordeste,317976.309938,0.517284595291,0.2854770716,0.735267252,1.0207443236,0.6446447648
479,478,Nordeste,Paraiba and Pernambucco,Tambaba,-7.361306,-34.798406,3,NA,Right and left,Beach-break,All surfers,2,1,1,3,Paraíba,0.5587576753,0.5609189465,0.5884658371,0.5044109541,Nordeste,155857.046432,0.408653387346,0.1399274469,0.5808590781,0.720786525,0.4552082722
157,156,Nordeste,NA,Bessa,-7.091138,-34.832765,NA,NA,NA,NA,NA,1,1,1,1,Paraíba,0.8437901821,0.6772809502,0.3116021335,0.6421028057,Nordeste,877956.069756,0.522059134213,0.7882232732,0.7420537717,1.5302770449,0.9664370037
480,479,Nordeste,Paraiba and Pernambucco,Mar do Macaco,-7.045016,-34.841423,2,3,Right and left,Beach-break,Beginners wave,2,3,0,2,Paraíba,0.9360184529,0.6439179377,0.3061144765,0.7576055966,Nordeste,892637.091871,0.512699412087,0.8014037998,0.7287498821,1.5301536819,0.9663590946
481,480,Nordeste,Paraiba and Pernambucco,Dique de Cabedelo,-6.963415,-34.84256,3,2,Left,Beach-break,All surfers,1,2,1,3,Paraíba,0.6173413318,0.5858576122,0.413012062,0.4959000869,Nordeste,351218.053545,0.497962931832,0.3153212937,0.7078034796,1.0231247733,0.6461481231
158,157,Nordeste,NA,Saji,-6.46688,-34.970449,NA,NA,NA,NA,NA,1,1,1,1,Rio Grande do Norte,0.4295211876,0.4066259829,0.3989070372,0.3563374768,Nordeste,8675.75575256,0.465939826063,0.0077890373,0.6622859034,0.6700749407,0.4231816847
159,158,Nordeste,NA,Farol,-6.408908,-34.979017,NA,NA,NA,NA,NA,1,1,1,1,Rio Grande do Norte,0.5384207766,0.5265421745,0.5515374756,0.4407061365,Nordeste,241308.532135,0.45405394774,0.2166452373,0.6453913405,0.8620365778,0.5444138694
160,159,Nordeste,NA,Xilauzinho,-6.395101,-34.983205,NA,NA,NA,NA,NA,1,1,1,1,Rio Grande do Norte,0.5918022494,0.5481746106,0.5442004036,0.4648290772,Nordeste,386138.139563,0.473557924498,0.3466723208,0.6731142527,1.0197865735,0.6440399036
161,160,Nordeste,NA,Mar Aberto,-6.379758,-34.989437,NA,NA,NA,NA,NA,1,1,1,1,Rio Grande do Norte,0.6453921871,0.54676068,0.4219148831,0.4834038097,Nordeste,560629.107014,0.48942209751,0.5033291813,0.6956635554,1.1989927367,0.7572164477
162,161,Nordeste,NA,Pontal,-6.36868,-34.993424,NA,NA,NA,NA,NA,1,1,1,1,Rio Grande do Norte,0.6507882862,0.547144977,0.3712618229,0.4775920493,Nordeste,611772.792898,0.48977517886,0.5492456512,0.6961654245,1.2454110757,0.7865316626
482,481,Nordeste,Rio Grande Do Norte,Baia Formosa,-6.366994,-35.014801,3.5,3,Right,Point-break,All surfers,1,3,1,3.5,Rio Grande do Norte,0.8263298939,0.7661234854,0.4420057697,0.6364697831,Nordeste,844798.968487,0.500836017165,0.7584550424,0.7118872771,1.4703423195,0.9285855985
163,162,Nordeste,NA,Mar da Frente,-6.365217,-35.006212,NA,NA,NA,NA,NA,1,1,1,1,Rio Grande do Norte,0.6887928584,0.6078902292,0.316996579,0.4928964322,Nordeste,735303.259121,0.495621646204,0.6601505037,0.704475581,1.3646260847,0.8618211642
164,163,Nordeste,NA,Lajinha,-6.27896,-35.033028,NA,NA,NA,NA,NA,1,1,1,1,Rio Grande do Norte,0.6415409244,0.5019568864,0.4569693575,0.5398953677,Nordeste,278573.899481,0.50825425002,0.2501018427,0.7224315379,0.9725333806,0.6141974419
165,164,Nordeste,NA,Afogados,-6.24435,-35.036464,NA,NA,NA,NA,NA,1,1,1,1,Rio Grande do Norte,0.5605162233,0.5923268864,0.5251768783,0.5158901049,Nordeste,60179.2202988,0.444978794944,0.0540285142,0.6324919372,0.6865204514,0.4335677453
166,165,Nordeste,NA,Sororoca,-6.238074,-35.035608,NA,NA,NA,NA,NA,1,1,1,1,Rio Grande do Norte,0.5549163074,0.6135373009,0.5694155117,0.5144324334,Nordeste,46184.6426125,0.439387743025,0.041464273,0.6245448276,0.6660091006,0.4206139285
167,166,Nordeste,NA,Abacateiro,-6.233891,-35.036747,NA,NA,NA,NA,NA,1,1,1,1,Rio Grande do Norte,0.5517764828,0.5910313758,0.5881831674,0.511625703,Nordeste,41559.2620106,0.439387743025,0.0373116363,0.6245448276,0.6618564639,0.4179913565
483,482,Nordeste,Rio Grande Do Norte,Pipa,-6.227699,-35.044627,4,4,Right and left,Beach-break,All surfers,2,4,1,4,Rio Grande do Norte,0.7536494352,0.7889714982,0.7941985547,0.764581829,Nordeste,49500.2546577,0.433820924131,0.044441008,0.6166321627,0.6610731707,0.4174966725
484,483,Nordeste,Rio Grande Do Norte,Lajão,-6.225929,-35.050244,3.5,2,Right,Point-break,Experienced surfers,1,2,0,3.5,Rio Grande do Norte,0.5686704697,0.6064455889,0.5467059502,0.5300861686,Nordeste,61442.25450709999,0.433820924131,0.0551624582,0.6166321627,0.6717946209,0.4242677381
485,484,Nordeste,Rio Grande Do Norte,Madeiro,-6.221044,-35.067995,3.5,3,Right and left,Beach-break,All surfers,2,3,1,3.5,Rio Grande do Norte,0.7319237377,0.7239967943,0.575559286,0.7327141615,Nordeste,101198.382404,0.413294591772,0.0908552523,0.5874560764,0.6783113287,0.4283833246
486,485,Nordeste,Rio Grande Do Norte,Cacimbinhas,-6.21153,-35.0775,3.5,3,Right and left,Beach-break,All surfers,2,3,1,3.5,Rio Grande do Norte,0.7332167228,0.6826945845,0.5709696802,0.7283105317,Nordeste,140659.557255,0.404019049295,0.1262832395,0.5742718396,0.7005550791,0.4424312276
168,167,Nordeste,NA,Tibau do Sul,-6.180279,-35.089709,NA,NA,NA,NA,NA,1,1,1,1,Rio Grande do Norte,0.5417084506,0.4018134482,0.2944684252,0.4704873117,Nordeste,205057.286304,0.410261117171,0.1840991036,0.5831443019,0.7672434055,0.4845478277
487,486,Nordeste,Rio Grande Do Norte,Tabatinga,-6.068866,-35.097198,3,NA,Right and left,NA,NA,2,1,1,3,Rio Grande do Norte,0.6107314475,0.5998248272,0.557107293,0.5424223173,Nordeste,88886.6486092,0.521267523991,0.0798018574,0.7409285786,0.820730436,0.518327231
169,168,Nordeste,NA,Tabatinga,-6.049479,-35.108238,NA,NA,NA,NA,NA,1,1,1,1,Rio Grande do Norte,0.491599816,0.4533307766,0.4010975428,0.4004712161,Nordeste,44581.3908386,0.530539792046,0.040024884,0.7541081612,0.7941330452,0.5015298134
170,169,Nordeste,NA,Xoxoline,-6.0058,-35.105259,NA,NA,NA,NA,NA,1,1,1,1,Rio Grande do Norte,0.4854851865,0.5378110625,0.4279519955,0.4184565227,Nordeste,5715.60255241,0.488461327818,0.005131431,0.6942979193,0.6994293503,0.4417202806
171,170,Nordeste,NA,Pirangi Reef,-5.980259,-35.107796,NA,NA,NA,NA,NA,1,1,1,1,Rio Grande do Norte,0.45912022,0.5153043305,0.4348748786,0.4149308373,Nordeste,5715.60255241,0.411849921807,0.005131431,0.5854026255,0.5905340565,0.3729481312
172,171,Nordeste,NA,Cotovelo,-5.949906,-35.151975,NA,NA,NA,NA,NA,1,1,1,1,Rio Grande do Norte,0.4477326693,0.4112272503,0.2149346767,0.4319118005,Nordeste,5715.60255241,0.330678206069,0.005131431,0.470025317,0.475156748,0.3000823056
488,487,Nordeste,Rio Grande Do Norte,Ponta negra,-5.879271,-35.17127,3,3,Right and left,Beach-break,All surfers,2,3,1,3,Rio Grande do Norte,0.6526021871,0.4471940809,0.269409585,0.7547962728,Nordeste,0,0.161778393072,0,0.2299514727,0.2299514727,0.1452244304
173,172,Nordeste,NA,Miami,-5.794834,-35.181664,NA,NA,NA,NA,NA,1,1,1,1,Rio Grande do Norte,0.4370157113,0.3311478306,0.2809514647,0.3566740176,Nordeste,401311.551319,0.241447748031,0.3602949116,0.3431933288,0.7034882404,0.4442836475
174,173,Nordeste,NA,Areia Preta,-5.792249,-35.184387,NA,NA,NA,NA,NA,1,1,1,1,Rio Grande do Norte,0.431807963,0.3401828374,0.2582687143,0.343992221,Nordeste,413809.370436,0.249564902074,0.3715153727,0.3547310347,0.7262464074,0.4586564271
175,174,Nordeste,NA,Praia dos Artistas,-5.781239,-35.19205,NA,NA,NA,NA,NA,1,1,1,1,Rio Grande do Norte,0.422087537,0.341259782,0.1378911262,0.3115755351,Nordeste,437800.300352,0.28702241186,0.3930542742,0.4079730615,0.8010273357,0.5058838599
176,175,Nordeste,NA,Genipabu,-5.694407,-35.201922,NA,NA,NA,NA,NA,1,1,1,1,Rio Grande do Norte,0.4196461793,0.4799287752,0.356137917,0.2494327033,Nordeste,285301.905785,0.536879138721,0.2561422032,0.7631188954,1.0192610986,0.6437080432
489,488,Nordeste,Rio Grande Do Norte,Genipabu,-5.687221,-35.21101,3,3,Right and left,Beach-break,All surfers,2,3,1,3,Rio Grande do Norte,0.5663227343,0.6570643571,0.711554,0.4271523676,Nordeste,273539.483608,0.559688342933,0.2455819768,0.795539851,1.0411218278,0.6575140515
177,176,Nordeste,NA,Touros Area,-5.197434,-35.45793,NA,NA,NA,NA,NA,1,1,1,1,Rio Grande do Norte,0.3698444143,0.2707694152,0.1907886825,0.4541588039,Nordeste,43.1974449158,0.023059660712,3.87824e-5,0.032776954,0.03281573639999999,0.0207245754
178,177,Nordeste,NA,Urca da Concei&ccedil;&atilde;o,-5.069617,-35.800231,NA,NA,NA,NA,NA,1,1,1,1,Rio Grande do Norte,0.2027673665,0.1912184872,0.2090003405,0.2108829795,Nordeste,0,0.111685035879,0,0.1587488786,0.1587488786,0.1002568725
179,178,Nordeste,NA,Cocoa das Lavadeiras,-5.066515,-35.862005,NA,NA,NA,NA,NA,1,1,1,1,Rio Grande do Norte,0.2075949221,0.2137955191,0.1678483261,0.2376870191,Nordeste,0,0.0577406467807,0,0.0820724357,0.0820724357,0.0518323392
490,489,Nordeste,Ceara,Morro Branco,-4.150763,-38.109727,3,NA,Right and left,Beach-break,All surfers,2,1,1,3,Ceará,0.5348611902,0.514730026,0.331746013,0.5553209609,Nordeste,19865.0389194,0.284518731003,0.0178347033,0.4044143347,0.422249038,0.2666687685
491,490,Nordeste,Ceara,Iguape Meio,-3.941302,-38.292251,NA,NA,NA,Beach-break,All surfers,1,1,1,1,Ceará,0.4634185743,0.5565331385,0.5796227279,0.4197019312,Nordeste,13917.8418121,0.408255347929,0.0124953482,0.5802933057,0.5927886539,0.3743720083
545,544,Nordeste,Ceara,Prainha,-3.899172,-38.346806,3.5,3,Right and left,Beach-break,All surfers,2,3,1,3.5,Ceará,0.6238433284,0.6305052294,0.6984510738,0.6490890655,Nordeste,88835.659626,0.286784814556,0.0797560799,0.4076353412,0.4873914211,0.3078090377
492,491,Nordeste,Fernando Do Noronha,Cacimba do Padre,-3.848947,-32.439537,4,2,Left,Beach-break,Experienced surfers,1,2,0,4,Pernambuco,0.6369295195,0.7813479199,0.3829755268,0.7974329658,Nordeste,0,0,0,0,0,0
546,545,Nordeste,Fernando Do Noronha,Laje do Bode,-3.847468,-32.434612,3.5,2,Left,Reef-coral,Experienced surfers,1,2,0,3.5,Pernambuco,0.6170221891,0.7716604893,0.2685847955,0.7725090754,Nordeste,0,0,0,0,0,0
493,492,Nordeste,Fernando Do Noronha,Boldró,-3.845457,-32.431694,4,3,Right and left,Reef-coral,Pros or kamikaze only...,2,3,0,4,Pernambuco,0.7204907964,0.8707761813,0.3552799523,0.9020513182,Nordeste,0,0,0,0,0,0
494,493,Nordeste,Fernando Do Noronha,Conceição,-3.841122,-32.418498,3,NA,Right and left,Beach-break,All surfers,2,1,1,3,Pernambuco,0.7615693654,0.9427885023,0.3258428171,0.9534815064,Nordeste,0,0,0,0,0,0
495,494,Nordeste,Fernando Do Noronha,Meio,-3.839607,-32.413289,3,NA,Right and left,NA,All surfers,2,1,1,3,Pernambuco,0.7615472852,0.9487791931,0.2645689988,0.9534538621,Nordeste,0,0,0,0,0,0
496,495,Nordeste,Fernando Do Noronha,Cachorro,-3.838906,-32.411127,3,2,Right,Beach-break,All surfers,1,2,1,3,Pernambuco,0.678992761,0.8707556275,0.2202482005,0.8500959597,Nordeste,0,0,0,0,0,0
497,496,Nordeste,Fernando Do Noronha,Biboca,-3.835106,-32.403349,3.5,NA,Right,Reef-coral,Experienced surfers,1,1,0,3.5,Pernambuco,0.6163339868,0.8157213331,0.2475557396,0.7716474492,Nordeste,0,0,0,0,0,0
498,497,Nordeste,Fernando Do Noronha,Abras,-3.827602,-32.400581,4,2,Left,Reef-rocky,Experienced surfers,1,2,0,4,Pernambuco,0.6348997517,0.797282395,0.329335667,0.7948917055,Nordeste,0,0,0,0,0,0
180,179,Nordeste,NA,Baia das Ratas,-3.813,-32.393,NA,NA,NA,NA,NA,1,1,1,1,Pernambuco,0.5588050051,0.4353750624,0.4684351531,0.6996214163,Nordeste,0,0,0,0,0,0
499,498,Nordeste,Ceara,Futuro,-3.726691,-38.457009,3.5,4,Right and left,Beach-break,All surfers,2,4,1,3.5,Ceará,0.6929464175,0.4001586553,0.2853595385,0.7623841755,Nordeste,167825.108236,0.167309880667,0.1506722952,0.2378139177,0.3884862129,0.2453460652
181,180,Nordeste,NA,Volta da Jurema,-3.724294,-38.496072,NA,NA,NA,NA,NA,1,1,1,1,Ceará,0.3856705413,0.2752302851,0.2641958563,0.3980718281,Nordeste,167825.108236,0.114312011422,0.1506722952,0.1624828562,0.3131551514,0.1977711992
182,181,Nordeste,NA,Portao,-3.719326,-38.510655,NA,NA,NA,NA,NA,1,1,1,1,Ceará,0.3733048288,0.2458752528,0.2778698296,0.3886090997,Nordeste,150885.183428,0.109371231494,0.1354637404,0.1554600418,0.2909237822,0.1837311154
500,499,Nordeste,Ceara,Iracema (ponte metalica),-3.718212,-38.518002,3.5,3,Right and left,Reef-rocky,Experienced surfers,2,3,0,3.5,Ceará,0.4625927565,0.3105115646,0.2163266134,0.5039190019,Nordeste,146775.886089,0.102815419341,0.1317744399,0.146141624,0.2779160639,0.1755161714
501,500,Nordeste,Ceara,Leste-Oeste,-3.71408,-38.54049,3,3,Right and left,Beach-break,All surfers,2,3,1,3,Ceará,0.5651277603,0.2570802076,0.1588236147,0.592793478,Nordeste,297483.765087,0.110261416444,0.2670789976,0.1567253489,0.4238043465,0.267651014
502,501,Nordeste,Ceara,Titanzinho,-3.707351,-38.467813,3.5,NA,Right and left,Reef-rocky,Experienced surfers,2,1,0,3.5,Ceará,0.3914495771,0.3279411359,0.0644302352,0.3973314629,Nordeste,167825.108236,0.135036706741,0.1506722952,0.1919408952,0.3426131904,0.2163752415
183,182,Nordeste,NA,Barra do Ceara,-3.692659,-38.584716,NA,NA,NA,NA,NA,1,1,1,1,Ceará,0.1997567052,0.1381286612,0.182810058,0.1307469521,Nordeste,254345.366884,0.149471086482,0.2283496231,0.2124578926,0.4408075157,0.2783892604
503,502,Nordeste,Ceara,Icarai,-3.670278,-38.669444,3.5,3,Right and left,Beach-break,Experienced surfers,2,3,0,3.5,Ceará,0.4005853311,0.3289031096,0.244994327,0.3395913208,Nordeste,252901.180485,0.261058321703,0.2270530419,0.3710677576,0.5981207995,0.3777394918
504,503,Nordeste,Ceara,Pico das Almas,-3.605083,-38.761997,3,2,Right and left,Beach-break,Experienced surfers,2,2,0,3,Ceará,0.3870649604,0.4154537778,0.3496158999,0.3972461238,Nordeste,0,0.226996931793,0,0.3226529685,0.3226529685,0.2037694868
184,183,Nordeste,NA,Praia do Pecem,-3.54617,-38.806919,NA,NA,NA,NA,NA,1,1,1,1,Ceará,0.2970311598,0.3003696842,0.1112176438,0.2554504245,Nordeste,5366.58295822,0.299154940119,0.0048180834,0.4252182121,0.4300362955,0.2715867629
505,504,Nordeste,Ceara,Taiba,-3.505663,-38.90527,3,3,Right and left,Point-break,All surfers,2,3,1,3,Ceará,0.478156589,0.4538796493,0.4133898498,0.5192134651,Nordeste,5366.58295822,0.203024618427,0.0048180834,0.288578772,0.2933968554,0.1852929695
185,184,Nordeste,NA,Tabinha,-3.500935,-38.911282,NA,NA,NA,NA,NA,1,1,1,1,Ceará,0.3087054957,0.301826989,0.2137680848,0.3145549536,Nordeste,4036.9950695000002,0.18439265871,0.003624388,0.262095343,0.265719731,0.1678136528
186,185,Nordeste,NA,Pedra do Meio,-3.410858,-39.040807,NA,NA,NA,NA,NA,1,1,1,1,Ceará,0.3477799731,0.368971376,0.0824488724,0.3290569064,Nordeste,15241.7899933,0.26675288015,0.0136839803,0.3791619912,0.3928459715,0.2480994437
506,505,Nordeste,Ceara,Paracuru,-3.406714,-39.032621,3.5,NA,Right and left,Reef-coral,Experienced surfers,2,1,0,3.5,Ceará,0.444998407,0.4413071076,0.275820092,0.4469530582,Nordeste,15241.7899933,0.276681423831,0.0136839803,0.3932744026,0.4069583829,0.2570120499
187,186,Nordeste,NA,Havaizinho,-3.403507,-39.022171,NA,NA,NA,NA,NA,1,1,1,1,Ceará,0.3426972463,0.3183093403,0.2180988314,0.3092630392,Nordeste,15241.7899933,0.301651315716,0.0136839803,0.4287665552,0.4424505355,0.2794268994
188,187,Nordeste,NA,Curral,-3.403353,-39.025868,NA,NA,NA,NA,NA,1,1,1,1,Ceará,0.3427211982,0.319723396,0.2371145183,0.3092930268,Nordeste,15241.7899933,0.301651315716,0.0136839803,0.4287665552,0.4424505355,0.2794268994
189,188,Nordeste,NA,Outside,-3.398539,-39.013306,NA,NA,NA,NA,NA,1,1,1,1,Ceará,0.3359058891,0.2886312279,0.1189694029,0.3005945492,Nordeste,15241.7899933,0.302081989511,0.0136839803,0.429378714,0.4430626943,0.2798135045
507,506,Nordeste,Ceara,Jericoacoara,-2.787089,-40.512611,3,3,Right and left,Beach-break,Beginners wave,2,3,0,3,Ceará,0.4529988182,0.4380195538,0.4905487997,0.4618980659,Nordeste,35351.9159756,0.251172629917,0.0317387212,0.3570162558,0.388754977,0.2455158015
190,189,Nordeste,NA,Atins,-2.555789,-42.727836,NA,NA,NA,NA,NA,1,1,1,1,Maranhão,0.4535273346,0.4378696017,0.4664992807,0.3081200705,Nordeste,226542.229876,0.531720433679,0.2033881467,0.7557863227,0.9591744694,0.6057607041
191,190,Nordeste,NA,Ponta d'Areia,-2.497384,-44.311779,NA,NA,NA,NA,NA,1,1,1,1,Maranhão,0.314675359,0.3137428849,0.2300301356,0.1722245115,Nordeste,168584.041725,0.469725080066,0.1513536608,0.6676662556,0.8190199164,0.517246963
192,191,Nordeste,NA,S&atilde;o Marcos,-2.485445,-44.2979,NA,NA,NA,NA,NA,1,1,1,1,Maranhão,0.2812060533,0.2649369175,0.21893492,0.1317680043,Nordeste,159568.994574,0.471659441259,0.1432600099,0.6704157526,0.8136757625,0.5138718956
193,192,Nordeste,NA,Calhau,-2.480673,-44.24968,NA,NA,NA,NA,NA,1,1,1,1,Maranhão,0.2209155748,0.1574529993,0.1701335595,0.0622050136,Nordeste,98393.6613598,0.494915326507,0.0883371919,0.7034716197,0.7918088116,0.500061958
547,546,Nordeste,Maranhao,Caolho,-2.478724,-44.240185,3.5,NA,Right and left,Beach-break,All surfers,2,1,1,3.5,Maranhão,0.4040329989,0.3168771747,0.298283046,0.2955775361,Nordeste,98878.7803402,0.483928343517,0.0887727286,0.6878547448,0.7766274734,0.4904742778
194,193,Nordeste,NA,Olho D'Agu,-2.477097,-44.230155,NA,NA,NA,NA,NA,1,1,1,1,Maranhão,0.2310626076,0.1436608305,0.1132262067,0.0736451181,Nordeste,110153.359304,0.490771896978,0.0988949726,0.6975821575,0.7964771301,0.5030102057
195,194,Nordeste,NA,Ponta do Farol,-2.456442,-44.173348,NA,NA,NA,NA,NA,1,1,1,1,Maranhão,0.391643379,0.3492974031,0.4559755159,0.2187568525,Nordeste,315587.165005,0.506359615963,0.2833321128,0.719738509,1.0030706218,0.6334830477
508,507,Nordeste,Maranhao,Travosa,-2.358991,-43.243904,3.5,NA,Right and left,Beach-break,All surfers,2,1,1,3.5,Pará,0.65816829,0.6017556641,0.588996546,0.6765026599,Nordeste,277414.900902,0.208108304983,0.2490613013,0.2958047135,0.5448660148,0.3441067619
509,508,Norte,Para,marahu,-1.073422,-48.403187,3.5,2,Right and left,Sand-bar,All surfers,2,2,1,3.5,Pará,0.3736841755,0.3939422751,0.470389055,0.4400342284,Norte,114436.583931,0,0.1027404239,0,0.1027404239,0.0648850793
510,509,Norte,Para,Camaraçu,-0.868831,-46.430798,5,4,Right and left,Beach-break,Experienced surfers,2,4,0,5,Pará,0.7341134349,0.7887739303,1,0.5755946101,Norte,514652.081786,0.56754208013,0.4620513058,0.8067031368,1.2687544426,0.8012740216
511,510,Norte,Para,Araruna,-0.688517,-48.483267,3,3,Right and left,Sand-bar,All surfers,2,3,1,3,Pará,0.8587455745,1,0.8595697949,0.8043981166,Norte,1113841.85119,0,1,0,1,0.6315438155
548,547,Norte,Para,Atalaia (salinas),-0.596981,-47.293623,3,3,Right and left,Beach-break,All surfers,2,3,1,3,Pará,0.7938388697,0.7254769681,0.6852407402,0.565175273,Norte,881247.951258,0.557368695376,0.7911787031,0.7922427088,1.5834214119,1
549,548,Norte,Para,Algodoal,-0.577838,-47.579901,3,2,Right,Beach-break,All surfers,1,2,1,3,Pará,0.5552751972,0.5009693894,0.6467421254,0.3558604966,Norte,492935.592741,0.570421636703,0.4425543826,0.8107961325,1.2533505151,0.7915457665
